;FLAVOR:Marlin
;TIME:2776
;Filament used: 2.14581m
;Layer height: 0.2
;MINX:110.485
;MINY:53.347
;MINZ:0.2
;MAXX:124.515
;MAXY:181.665
;MAXZ:3.2
;Generated with Cura_SteamEngine 5.2.1
M140 S60
M105
M190 S60
M104 S205
M105
M109 S205
M82 ;absolute extrusion mode
; Ender 3 Custom Start G-code
G92 E0 ; Reset Extruder
G28 ; Home all axes
G1 Z2.0 F3000 ; Move Z Axis up little to prevent scratching of Heat Bed
G1 X0.1 Y20 Z0.3 F5000.0 ; Move to start position
G1 X0.1 Y200.0 Z0.3 F1500.0 E15 ; Draw the first line
G1 X0.4 Y200.0 Z0.3 F5000.0 ; Move to side a little
G1 X0.4 Y20 Z0.3 F1500.0 E30 ; Draw the second line
G92 E0 ; Reset Extruder
G1 Z2.0 F3000 ; Move Z Axis up little to prevent scratching of Heat Bed
G1 X5 Y20 Z0.3 F5000.0 ; Move over to prevent blob squish
G92 E0
G92 E0
G1 F2700 E-5
;LAYER_COUNT:16
;LAYER:0
M107
;MESH:D790-17 Flexural.STL
G0 F6000 X112.15 Y180 Z0.2
;TYPE:WALL-INNER
G1 F2700 E0
G1 F1200 X122.85 Y180 E0.35588
G1 X122.85 Y60.35 E4.33546
G1 X122.85 Y55 E4.5134
G1 X112.15 Y55 E4.86928
G1 X112.15 Y180 E9.0268
G1 F2700 E4.0268
G0 F6000 X112.02 Y54.87
G1 F2700 E9.0268
G0 F6000 X111.75 Y54.6
G1 F1200 X123.25 Y54.6 E9.40929
G1 X123.25 Y60.35 E9.60054
G1 X123.25 Y180.4 E13.59342
G1 X111.75 Y180.4 E13.97591
G1 X111.75 Y54.6 E18.16003
G1 F2700 E13.16003
G0 F6000 X112.02 Y54.87
G0 X111.62 Y180.53
G1 F2700 E18.16003
G0 F6000 X111.35 Y180.8
;TYPE:WALL-OUTER
G1 F1200 X123.65 Y180.8 E18.56913
G1 X123.65 Y60.35 E22.57532
G1 X123.65 Y54.2 E22.77987
G1 X111.35 Y54.2 E23.18897
G1 X111.35 Y180.8 E27.3997
G0 F6000 X111.62 Y180.53
G0 X112.25 Y179.6
G0 X112.55 Y179.6
;TYPE:SKIN
G1 F1200 X122.45 Y179.6 E27.72897
G1 X122.45 Y60.35 E31.69525
G1 X122.45 Y55.4 E31.85988
G1 X112.55 Y55.4 E32.18916
G1 X112.55 Y179.6 E36.32007
G0 F6000 X112.95 Y179.2
G1 F1200 X122.05 Y179.2 E36.62273
G1 X122.05 Y60.35 E40.5757
G1 X122.05 Y55.8 E40.72704
G1 X112.95 Y55.8 E41.0297
G1 X112.95 Y179.2 E45.134
G0 F6000 X113.35 Y178.8
G1 F1200 X121.65 Y178.8 E45.41006
G1 X121.65 Y56.2 E49.48775
G1 X113.35 Y56.2 E49.76381
G1 X113.35 Y178.8 E53.84151
G0 F6000 X113.75 Y178.4
G1 F1200 X121.25 Y178.4 E54.09096
G1 X121.25 Y174.65 E54.21568
G1 X121.25 Y56.6 E58.14204
G1 X113.75 Y56.6 E58.39149
G1 X113.75 Y178.4 E62.44258
G0 F6000 X114.15 Y178
G1 F1200 X120.85 Y178 E62.66542
G1 X120.85 Y60.35 E66.57848
G1 X120.85 Y57 E66.6899
G1 X114.15 Y57 E66.91274
G1 X114.15 Y178 E70.93722
G0 F6000 X114.55 Y177.6
G1 F1200 X117.5 Y177.6 E71.03533
G1 X120.45 Y177.6 E71.13345
G1 X120.45 Y57.4 E75.13132
G1 X114.55 Y57.4 E75.32755
G1 X114.55 Y177.6 E79.32542
G0 F6000 X114.95 Y177.2
G1 F1200 X120.05 Y177.2 E79.49505
G1 X120.05 Y60.35 E83.3815
G1 X120.05 Y57.8 E83.46631
G1 X114.95 Y57.8 E83.63594
G1 X114.95 Y177.2 E87.6072
G0 F6000 X115.35 Y176.8
G1 F1200 X119.65 Y176.8 E87.75021
G1 X119.65 Y60.35 E91.62336
G1 X119.65 Y58.2 E91.69487
G1 X115.35 Y58.2 E91.83788
G1 X115.35 Y176.8 E95.78254
G0 F6000 X115.75 Y176.4
G1 F1200 X119.25 Y176.4 E95.89895
G1 X119.25 Y60.35 E99.75879
G1 X119.25 Y58.6 E99.81699
G1 X115.75 Y58.6 E99.9334
G1 X115.75 Y176.4 E103.85145
G0 F6000 X116.15 Y176
G1 F1200 X118.85 Y176 E103.94125
G1 X118.85 Y60.35 E107.78778
G1 X118.85 Y59 E107.83268
G1 X116.15 Y59 E107.92249
G1 X116.15 Y176 E111.81392
G0 F6000 X116.55 Y175.6
G1 F1200 X118.45 Y175.6 E111.87712
G1 X118.45 Y60.35 E115.71035
G1 X118.45 Y59.4 E115.74194
G1 X116.55 Y59.4 E115.80514
G1 X116.55 Y175.6 E119.66997
G0 F6000 X116.95 Y175.2
G1 F1200 X118.05 Y175.2 E119.70655
G1 X118.05 Y59.8 E123.54477
G1 X116.95 Y59.8 E123.58136
G1 X116.95 Y175.2 E127.41958
G0 F6000 X117.325 Y174.825
G1 F1371.4 X117.675 Y174.825 E127.42976
G1 X117.675 Y60.35 E130.76129
G1 X117.675 Y60.175 E130.76638
G1 X117.325 Y60.175 E130.77656
G1 X117.325 Y174.825 E134.11318
G1 F2700 E129.11318
;MESH:NONMESH
G0 F300 X117.325 Y174.825 Z0.4
G0 F6000 X112.35 Y174.825
G0 X112.15 Y55
;TIME_ELAPSED:213.554968
;LAYER:1
M106 S85
;TYPE:WALL-INNER
;MESH:D790-17 Flexural.STL
G1 F2700 E134.11318
G1 F1350 X122.85 Y55 E134.46906
G1 X122.85 Y60.35 E134.647
G1 X122.85 Y180 E138.62658
G1 X112.15 Y180 E138.98246
G1 X112.15 Y55 E143.13998
G1 F2700 E138.13998
G0 F7500 X112.02 Y180.13
G1 F2700 E143.13998
G0 F7500 X111.75 Y180.4
G1 F1350 X123.25 Y180.4 E143.52247
G1 X123.25 Y60.35 E147.51535
G1 X123.25 Y54.6 E147.7066
G1 X111.75 Y54.6 E148.08909
G1 X111.75 Y180.4 E152.27321
G1 F2700 E147.27321
G0 F7500 X112.02 Y180.13
G0 X111.62 Y54.47
G1 F2700 E152.27321
G0 F7500 X111.35 Y54.2
;TYPE:WALL-OUTER
G1 F1350 X123.65 Y54.2 E152.68231
G1 X123.65 Y60.35 E152.88686
G1 X123.65 Y180.8 E156.89305
G1 X111.35 Y180.8 E157.30215
G1 X111.35 Y54.2 E161.51288
G1 F2700 E156.51288
G0 F7500 X111.62 Y54.47
G0 X112.35 Y60.175
G0 X117.325 Y60.175
;TYPE:SKIN
G1 F2700 E161.51288
G1 F1542.9 X117.675 Y60.175 E161.52306
G1 X117.675 Y60.35 E161.52816
G1 X117.675 Y174.825 E164.85968
G1 X117.325 Y174.825 E164.86987
G1 X117.325 Y60.175 E168.20648
G0 F7500 X118.05 Y59.8
G1 F1350 X118.05 Y175.2 E172.0447
G1 X116.95 Y175.2 E172.08129
G1 X116.95 Y59.8 E175.91951
G1 X118.05 Y59.8 E175.95609
G0 F7500 X116.55 Y59.4
G1 F1350 X118.45 Y59.4 E176.01929
G1 X118.45 Y60.35 E176.05088
G1 X118.45 Y175.6 E179.88411
G1 X116.55 Y175.6 E179.94731
G1 X116.55 Y59.4 E183.81214
G0 F7500 X116.15 Y59
G1 F1350 X118.85 Y59 E183.90194
G1 X118.85 Y60.35 E183.94684
G1 X118.85 Y176 E187.79337
G1 X116.15 Y176 E187.88318
G1 X116.15 Y59 E191.77461
G0 F7500 X115.75 Y58.6
G1 F1350 X119.25 Y58.6 E191.89102
G1 X119.25 Y60.35 E191.94923
G1 X119.25 Y176.4 E195.80907
G1 X115.75 Y176.4 E195.92548
G1 X115.75 Y58.6 E199.84352
G0 F7500 X115.35 Y58.2
G1 F1350 X119.65 Y58.2 E199.98654
G1 X119.65 Y60.35 E200.05805
G1 X119.65 Y176.8 E203.93119
G1 X115.35 Y176.8 E204.07421
G1 X115.35 Y58.2 E208.01886
G0 F7500 X114.95 Y57.8
G1 F1350 X120.05 Y57.8 E208.18849
G1 X120.05 Y60.35 E208.2733
G1 X120.05 Y177.2 E212.15975
G1 X114.95 Y177.2 E212.32938
G1 X114.95 Y57.8 E216.30064
G0 F7500 X114.55 Y57.4
G1 F1350 X120.45 Y57.4 E216.49687
G1 X120.45 Y60.35 E216.59499
G1 X120.45 Y177.6 E220.49474
G1 X114.55 Y177.6 E220.69097
G1 X114.55 Y57.4 E224.68884
G0 F7500 X114.15 Y57
G1 F1350 X120.85 Y57 E224.91169
G1 X120.85 Y60.35 E225.02311
G1 X120.85 Y178 E228.93616
G1 X114.15 Y178 E229.159
G1 X114.15 Y57 E233.18348
G0 F7500 X113.75 Y56.6
G1 F1350 X121.25 Y56.6 E233.43293
G1 X121.25 Y60.35 E233.55766
G1 X121.25 Y178.4 E237.48402
G1 X113.75 Y178.4 E237.73347
G1 X113.75 Y56.6 E241.78455
G0 F7500 X113.35 Y56.2
G1 F1350 X121.65 Y56.2 E242.06061
G1 X121.65 Y178.8 E246.1383
G1 X113.35 Y178.8 E246.41436
G1 X113.35 Y174.65 E246.55239
G1 X113.35 Y56.2 E250.49206
G1 F2700 E245.49206
G0 F7500 X113.35 Y55.2
G0 X122.05 Y55.1
G1 F2700 E250.49206
G0 F7500 X122.05 Y55.8
G1 F1350 X122.05 Y179.2 E254.59636
G1 X112.95 Y179.2 E254.89902
G1 X112.95 Y55.8 E259.00332
G1 X122.05 Y55.8 E259.30599
G0 F7500 X122.05 Y55.1
G0 X112.322 Y55.172
G0 X112.55 Y55.4
G1 F1350 X122.45 Y55.4 E259.63527
G1 X122.45 Y60.35 E259.7999
G1 X122.45 Y179.6 E263.76617
G1 X112.55 Y179.6 E264.09545
G1 X112.55 Y55.4 E268.22636
G1 F2700 E263.22636
;MESH:NONMESH
G0 F300 X112.55 Y55.4 Z0.6
G0 F7500 X112.25 Y55.4
G0 X112.15 Y180
;TIME_ELAPSED:401.526070
;LAYER:2
M106 S170
;TYPE:WALL-INNER
;MESH:D790-17 Flexural.STL
G1 F2700 E268.22636
G1 F1500 X122.85 Y180 E268.58224
G1 X122.85 Y60.35 E272.56182
G1 X122.85 Y55 E272.73976
G1 X112.15 Y55 E273.09564
G1 X112.15 Y180 E277.25316
G1 F2700 E272.25316
G0 F9000 X112.02 Y54.87
G1 F2700 E277.25316
G0 F9000 X111.75 Y54.6
G1 F1500 X123.25 Y54.6 E277.63565
G1 X123.25 Y60.35 E277.8269
G1 X123.25 Y180.4 E281.81978
G1 X111.75 Y180.4 E282.20227
G1 X111.75 Y54.6 E286.38639
G1 F2700 E281.38639
G0 F9000 X112.02 Y54.87
G0 X111.62 Y180.53
G1 F2700 E286.38639
G0 F9000 X111.35 Y180.8
;TYPE:WALL-OUTER
G1 F1500 X123.65 Y180.8 E286.79549
G1 X123.65 Y60.35 E290.80168
G1 X123.65 Y54.2 E291.00623
G1 X111.35 Y54.2 E291.41533
G1 X111.35 Y180.8 E295.62606
G0 F9000 X111.62 Y180.53
G0 X112.25 Y179.6
G0 X112.55 Y179.6
;TYPE:SKIN
G1 F1500 X122.45 Y179.6 E295.95533
G1 X122.45 Y60.35 E299.9216
G1 X122.45 Y55.4 E300.08624
G1 X112.55 Y55.4 E300.41552
G1 X112.55 Y179.6 E304.54643
G0 F9000 X112.95 Y179.2
G1 F1500 X122.05 Y179.2 E304.84909
G1 X122.05 Y60.35 E308.80206
G1 X122.05 Y55.8 E308.95339
G1 X112.95 Y55.8 E309.25606
G1 X112.95 Y179.2 E313.36036
G0 F9000 X113.35 Y178.8
G1 F1500 X121.65 Y178.8 E313.63642
G1 X121.65 Y60.35 E317.57608
G1 X121.65 Y56.2 E317.71411
G1 X113.35 Y56.2 E317.99017
G1 X113.35 Y178.8 E322.06787
G0 F9000 X113.75 Y178.4
G1 F1500 X121.25 Y178.4 E322.31732
G1 X121.25 Y60.35 E326.24368
G1 X121.25 Y56.6 E326.3684
G1 X113.75 Y56.6 E326.61785
G1 X113.75 Y178.4 E330.66894
G0 F9000 X114.15 Y178
G1 F1500 X120.85 Y178 E330.89178
G1 X120.85 Y60.35 E334.80483
G1 X120.85 Y57 E334.91626
G1 X114.15 Y57 E335.1391
G1 X114.15 Y178 E339.16358
G0 F9000 X114.55 Y177.6
G1 F1500 X120.45 Y177.6 E339.35981
G1 X120.45 Y60.35 E343.25956
G1 X120.45 Y57.4 E343.35768
G1 X114.55 Y57.4 E343.55391
G1 X114.55 Y177.6 E347.55178
G0 F9000 X114.95 Y177.2
G1 F1500 X120.05 Y177.2 E347.72141
G1 X120.05 Y60.35 E351.60785
G1 X120.05 Y57.8 E351.69267
G1 X114.95 Y57.8 E351.86229
G1 X114.95 Y177.2 E355.83355
G0 F9000 X115.35 Y176.8
G1 F1500 X119.65 Y176.8 E355.97657
G1 X119.65 Y60.35 E359.84972
G1 X119.65 Y58.2 E359.92123
G1 X115.35 Y58.2 E360.06424
G1 X115.35 Y176.8 E364.0089
G0 F9000 X115.75 Y176.4
G1 F1500 X119.25 Y176.4 E364.12531
G1 X119.25 Y60.35 E367.98515
G1 X119.25 Y58.6 E368.04335
G1 X115.75 Y58.6 E368.15976
G1 X115.75 Y176.4 E372.0778
G0 F9000 X116.15 Y176
G1 F1500 X118.85 Y176 E372.16761
G1 X118.85 Y174.65 E372.21251
G1 X118.85 Y59 E376.05904
G1 X116.15 Y59 E376.14885
G1 X116.15 Y176 E380.04028
G0 F9000 X116.55 Y175.6
G1 F1500 X118.45 Y175.6 E380.10348
G1 X118.45 Y60.35 E383.93671
G1 X118.45 Y59.4 E383.9683
G1 X116.55 Y59.4 E384.0315
G1 X116.55 Y175.6 E387.89632
G0 F9000 X116.95 Y175.2
G1 F1500 X118.05 Y175.2 E387.93291
G1 X118.05 Y59.8 E391.77113
G1 X116.95 Y59.8 E391.80772
G1 X116.95 Y175.2 E395.64594
G0 F9000 X117.325 Y174.825
G1 F1714.3 X117.675 Y174.825 E395.65612
G1 X117.675 Y60.35 E398.98764
G1 X117.675 Y60.175 E398.99274
G1 X117.325 Y60.175 E399.00292
G1 X117.325 Y174.825 E402.33954
G1 F2700 E397.33954
;MESH:NONMESH
G0 F300 X117.325 Y174.825 Z0.8
G0 F9000 X112.35 Y174.825
G0 X112.15 Y55
;TIME_ELAPSED:570.016010
;LAYER:3
M106 S255
;TYPE:WALL-INNER
;MESH:D790-17 Flexural.STL
G1 F2700 E402.33954
G1 F1500 X122.85 Y55 E402.69542
G1 X122.85 Y60.35 E402.87336
G1 X122.85 Y180 E406.85294
G1 X112.15 Y180 E407.20882
G1 X112.15 Y55 E411.36634
G1 F2700 E406.36634
G0 F9000 X112.02 Y180.13
G1 F2700 E411.36634
G0 F9000 X111.75 Y180.4
G1 F1500 X123.25 Y180.4 E411.74883
G1 X123.25 Y60.35 E415.74171
G1 X123.25 Y54.6 E415.93296
G1 X111.75 Y54.6 E416.31545
G1 X111.75 Y180.4 E420.49957
G1 F2700 E415.49957
G0 F9000 X112.02 Y180.13
G0 X111.62 Y54.47
G1 F2700 E420.49957
G0 F9000 X111.35 Y54.2
;TYPE:WALL-OUTER
G1 F1500 X123.65 Y54.2 E420.90867
G1 X123.65 Y60.35 E421.11322
G1 X123.65 Y180.8 E425.11941
G1 X111.35 Y180.8 E425.5285
G1 X111.35 Y54.2 E429.73924
G1 F2700 E424.73924
G0 F9000 X111.62 Y54.47
G0 X112.35 Y60.175
G0 X117.325 Y60.175
;TYPE:SKIN
G1 F2700 E429.73924
G1 F1714.3 X117.675 Y60.175 E429.74942
G1 X117.675 Y60.35 E429.75452
G1 X117.675 Y174.825 E433.08604
G1 X117.325 Y174.825 E433.09622
G1 X117.325 Y60.175 E436.43284
G0 F9000 X116.95 Y59.8
G1 F1500 X118.05 Y59.8 E436.46943
G1 X118.05 Y60.35 E436.48772
G1 X118.05 Y175.2 E440.30765
G1 X116.95 Y175.2 E440.34423
G1 X116.95 Y59.8 E444.18245
G0 F9000 X116.55 Y59.4
G1 F1500 X118.45 Y59.4 E444.24565
G1 X118.45 Y60.35 E444.27724
G1 X118.45 Y175.6 E448.11047
G1 X116.55 Y175.6 E448.17367
G1 X116.55 Y59.4 E452.0385
G0 F9000 X118.85 Y59
G1 F1500 X118.85 Y176 E455.92993
G1 X116.15 Y176 E456.01973
G1 X116.15 Y59 E459.91117
G1 X118.85 Y59 E460.00097
G0 F9000 X115.75 Y58.6
G1 F1500 X119.25 Y58.6 E460.11738
G1 X119.25 Y60.35 E460.17559
G1 X119.25 Y176.4 E464.03543
G1 X115.75 Y176.4 E464.15184
G1 X115.75 Y58.6 E468.06988
G0 F9000 X115.35 Y58.2
G1 F1500 X119.65 Y58.2 E468.2129
G1 X119.65 Y60.35 E468.28441
G1 X119.65 Y176.8 E472.15755
G1 X115.35 Y176.8 E472.30057
G1 X115.35 Y58.2 E476.24522
G0 F9000 X114.95 Y57.8
G1 F1500 X120.05 Y57.8 E476.41485
G1 X120.05 Y60.35 E476.49966
G1 X120.05 Y177.2 E480.38611
G1 X114.95 Y177.2 E480.55574
G1 X114.95 Y57.8 E484.527
G1 F2700 E479.527
G0 F9000 X110.485 Y57.8
G0 X110.497 Y181.653
G0 X120.45 Y181.665
G0 X120.45 Y177.6
G1 F2700 E484.527
G1 F1500 X117.5 Y177.6 E484.62511
G1 X114.55 Y177.6 E484.72323
G1 X114.55 Y57.4 E488.7211
G1 X120.45 Y57.4 E488.91733
G1 X120.45 Y177.6 E492.9152
G1 F2700 E487.9152
G0 F9000 X120.45 Y181.665
G0 X110.497 Y181.653
G0 X110.485 Y57
G0 X114.15 Y57
G1 F2700 E492.9152
G1 F1500 X120.85 Y57 E493.13804
G1 X120.85 Y60.35 E493.24947
G1 X120.85 Y178 E497.16252
G1 X114.15 Y178 E497.38536
G1 X114.15 Y57 E501.40984
G0 F9000 X113.75 Y56.6
G1 F1500 X121.25 Y56.6 E501.65929
G1 X121.25 Y60.35 E501.78402
G1 X121.25 Y178.4 E505.71038
G1 X113.75 Y178.4 E505.95983
G1 X113.75 Y56.6 E510.01091
G0 F9000 X113.35 Y56.2
G1 F1500 X121.65 Y56.2 E510.28697
G1 X121.65 Y60.35 E510.425
G1 X121.65 Y178.8 E514.36466
G1 X113.35 Y178.8 E514.64072
G1 X113.35 Y56.2 E518.71841
G0 F9000 X112.95 Y55.8
G1 F1500 X122.05 Y55.8 E519.02108
G1 X122.05 Y60.35 E519.17241
G1 X122.05 Y179.2 E523.12538
G1 X112.95 Y179.2 E523.42805
G1 X112.95 Y55.8 E527.53235
G0 F9000 X112.55 Y55.4
G1 F1500 X122.45 Y55.4 E527.86163
G1 X122.45 Y60.35 E528.02626
G1 X122.45 Y179.6 E531.99253
G1 X112.55 Y179.6 E532.32181
G1 X112.55 Y55.4 E536.45272
G1 F2700 E531.45272
;MESH:NONMESH
G0 F300 X112.55 Y55.4 Z1
G0 F9000 X112.25 Y55.4
G0 X112.15 Y180
;TIME_ELAPSED:743.123542
;LAYER:4
;TYPE:WALL-INNER
;MESH:D790-17 Flexural.STL
G1 F2700 E536.45272
G1 F1500 X122.85 Y180 E536.8086
G1 X122.85 Y55 E540.96612
G1 X112.15 Y55 E541.322
G1 X112.15 Y180 E545.47952
G1 F2700 E540.47952
G0 F9000 X122.678 Y179.828
G0 X122.98 Y54.87
G1 F2700 E545.47952
G0 F9000 X123.25 Y54.6
G1 F1500 X123.25 Y180.4 E549.66364
G1 X111.75 Y180.4 E550.04614
G1 X111.75 Y54.6 E554.23026
G1 X123.25 Y54.6 E554.61275
G1 F2700 E549.61275
G0 F9000 X122.98 Y54.87
G0 X112.068 Y54.918
G0 X111.62 Y180.53
G1 F2700 E554.61275
G0 F9000 X111.35 Y180.8
;TYPE:WALL-OUTER
G1 F1500 X123.65 Y180.8 E555.02185
G1 X123.65 Y54.2 E559.23258
G1 X111.35 Y54.2 E559.64168
G1 X111.35 Y180.8 E563.85242
G0 F9000 X111.62 Y180.53
G0 X112.25 Y179.6
G0 X112.55 Y179.6
;TYPE:SKIN
G1 F1500 X122.45 Y179.6 E564.18169
G1 X122.45 Y60.35 E568.14796
G1 X122.45 Y55.4 E568.3126
G1 X112.55 Y55.4 E568.64188
G1 X112.55 Y179.6 E572.77279
G0 F9000 X112.95 Y179.2
G1 F1500 X122.05 Y179.2 E573.07545
G1 X122.05 Y55.8 E577.17975
G1 X117.5 Y55.8 E577.33109
G1 X112.95 Y55.8 E577.48242
G1 X112.95 Y179.2 E581.58672
G0 F9000 X113.35 Y178.8
G1 F1500 X121.65 Y178.8 E581.86278
G1 X121.65 Y60.35 E585.80244
G1 X121.65 Y56.2 E585.94047
G1 X113.35 Y56.2 E586.21653
G1 X113.35 Y178.8 E590.29422
G0 F9000 X113.75 Y178.4
G1 F1500 X121.25 Y178.4 E590.54368
G1 X121.25 Y60.35 E594.47003
G1 X121.25 Y56.6 E594.59476
G1 X113.75 Y56.6 E594.84421
G1 X113.75 Y178.4 E598.8953
G0 F9000 X114.15 Y178
G1 F1500 X120.85 Y178 E599.11814
G1 X120.85 Y57 E603.14261
G1 X114.15 Y57 E603.36546
G1 X114.15 Y178 E607.38993
G0 F9000 X114.55 Y177.6
G1 F1500 X120.45 Y177.6 E607.58617
G1 X120.45 Y60.35 E611.48592
G1 X120.45 Y57.4 E611.58404
G1 X114.55 Y57.4 E611.78027
G1 X114.55 Y177.6 E615.77814
G0 F9000 X114.95 Y177.2
G1 F1500 X120.05 Y177.2 E615.94777
G1 X120.05 Y60.35 E619.83421
G1 X120.05 Y57.8 E619.91903
G1 X114.95 Y57.8 E620.08865
G1 X114.95 Y177.2 E624.05991
G0 F9000 X115.35 Y176.8
G1 F1500 X119.65 Y176.8 E624.20293
G1 X119.65 Y174.65 E624.27444
G1 X119.65 Y58.2 E628.14758
G1 X115.35 Y58.2 E628.2906
G1 X115.35 Y176.8 E632.23526
G0 F9000 X115.75 Y176.4
G1 F1500 X119.25 Y176.4 E632.35167
G1 X119.25 Y58.6 E636.26971
G1 X117.5 Y58.6 E636.32791
G1 X115.75 Y58.6 E636.38612
G1 X115.75 Y176.4 E640.30416
G0 F9000 X116.15 Y176
G1 F1500 X118.85 Y176 E640.39397
G1 X118.85 Y59 E644.2854
G1 X116.15 Y59 E644.3752
G1 X116.15 Y176 E648.26664
G0 F9000 X116.55 Y175.6
G1 F1500 X118.45 Y175.6 E648.32983
G1 X118.45 Y60.35 E652.16306
G1 X118.45 Y59.4 E652.19466
G1 X116.55 Y59.4 E652.25786
G1 X116.55 Y175.6 E656.12268
G0 F9000 X116.95 Y175.2
G1 F1500 X118.05 Y175.2 E656.15927
G1 X118.05 Y60.35 E659.9792
G1 X118.05 Y59.8 E659.99749
G1 X116.95 Y59.8 E660.03408
G1 X116.95 Y175.2 E663.8723
G0 F9000 X117.325 Y174.825
G1 F1714.3 X117.675 Y174.825 E663.88248
G1 X117.675 Y60.35 E667.214
G1 X117.675 Y60.175 E667.2191
G1 X117.325 Y60.175 E667.22928
G1 X117.325 Y174.825 E670.5659
G1 F2700 E665.5659
;MESH:NONMESH
G0 F300 X117.325 Y174.825 Z1.2
G0 F9000 X112.35 Y174.825
G0 X112.15 Y55
;TIME_ELAPSED:912.144411
;LAYER:5
;TYPE:WALL-INNER
;MESH:D790-17 Flexural.STL
G1 F2700 E670.5659
G1 F1500 X122.85 Y55 E670.92178
G1 X122.85 Y60.35 E671.09972
G1 X122.85 Y180 E675.0793
G1 X112.15 Y180 E675.43518
G1 X112.15 Y55 E679.5927
G1 F2700 E674.5927
G0 F9000 X112.02 Y180.13
G1 F2700 E679.5927
G0 F9000 X111.75 Y180.4
G1 F1500 X123.25 Y180.4 E679.97519
G1 X123.25 Y60.35 E683.96807
G1 X123.25 Y54.6 E684.15931
G1 X111.75 Y54.6 E684.54181
G1 X111.75 Y180.4 E688.72593
G1 F2700 E683.72593
G0 F9000 X112.02 Y180.13
G0 X111.62 Y54.47
G1 F2700 E688.72593
G0 F9000 X111.35 Y54.2
;TYPE:WALL-OUTER
G1 F1500 X123.65 Y54.2 E689.13503
G1 X123.65 Y60.35 E689.33958
G1 X123.65 Y180.8 E693.34576
G1 X111.35 Y180.8 E693.75486
G1 X111.35 Y54.2 E697.9656
G1 F2700 E692.9656
G0 F9000 X111.62 Y54.47
G0 X112.35 Y60.175
G0 X117.325 Y60.175
;TYPE:SKIN
G1 F2700 E697.9656
G1 F1714.3 X117.675 Y60.175 E697.97578
G1 X117.675 Y60.35 E697.98088
G1 X117.675 Y174.825 E701.3124
G1 X117.325 Y174.825 E701.32258
G1 X117.325 Y60.175 E704.6592
G0 F9000 X118.05 Y59.8
G1 F1500 X118.05 Y175.2 E708.49742
G1 X116.95 Y175.2 E708.534
G1 X116.95 Y59.8 E712.37222
G1 X118.05 Y59.8 E712.40881
G0 F9000 X116.55 Y59.4
G1 F1500 X118.45 Y59.4 E712.472
G1 X118.45 Y60.35 E712.5036
G1 X118.45 Y175.6 E716.33683
G1 X116.55 Y175.6 E716.40003
G1 X116.55 Y59.4 E720.26485
G0 F9000 X116.15 Y59
G1 F1500 X118.85 Y59 E720.35466
G1 X118.85 Y60.35 E720.39956
G1 X118.85 Y176 E724.24609
G1 X116.15 Y176 E724.3359
G1 X116.15 Y59 E728.22733
G0 F9000 X115.75 Y58.6
G1 F1500 X119.25 Y58.6 E728.34374
G1 X119.25 Y60.35 E728.40195
G1 X119.25 Y176.4 E732.26179
G1 X115.75 Y176.4 E732.3782
G1 X115.75 Y58.6 E736.29624
G0 F9000 X115.35 Y58.2
G1 F1500 X119.65 Y58.2 E736.43926
G1 X119.65 Y60.35 E736.51077
G1 X119.65 Y176.8 E740.38391
G1 X115.35 Y176.8 E740.52693
G1 X115.35 Y58.2 E744.47158
G0 F9000 X114.95 Y57.8
G1 F1500 X120.05 Y57.8 E744.64121
G1 X120.05 Y60.35 E744.72602
G1 X120.05 Y177.2 E748.61247
G1 X114.95 Y177.2 E748.78209
G1 X114.95 Y57.8 E752.75335
G0 F9000 X114.55 Y57.4
G1 F1500 X120.45 Y57.4 E752.94959
G1 X120.45 Y174.65 E756.84934
G1 X120.45 Y177.6 E756.94746
G1 X114.55 Y177.6 E757.14369
G1 X114.55 Y57.4 E761.14156
G0 F9000 X114.15 Y57
G1 F1500 X120.85 Y57 E761.3644
G1 X120.85 Y60.35 E761.47582
G1 X120.85 Y178 E765.38888
G1 X114.15 Y178 E765.61172
G1 X114.15 Y57 E769.6362
G0 F9000 X113.75 Y56.6
G1 F1500 X121.25 Y56.6 E769.88565
G1 X121.25 Y60.35 E770.01038
G1 X121.25 Y178.4 E773.93673
G1 X113.75 Y178.4 E774.18619
G1 X113.75 Y56.6 E778.23727
G0 F9000 X113.35 Y56.2
G1 F1500 X121.65 Y56.2 E778.51333
G1 X121.65 Y60.35 E778.65136
G1 X121.65 Y178.8 E782.59102
G1 X113.35 Y178.8 E782.86708
G1 X113.35 Y56.2 E786.94477
G0 F9000 X112.95 Y55.8
G1 F1500 X122.05 Y55.8 E787.24744
G1 X122.05 Y60.35 E787.39877
G1 X122.05 Y179.2 E791.35174
G1 X112.95 Y179.2 E791.65441
G1 X112.95 Y55.8 E795.75871
G0 F9000 X112.55 Y55.4
G1 F1500 X122.45 Y55.4 E796.08798
G1 X122.45 Y60.35 E796.25262
G1 X122.45 Y179.6 E800.21889
G1 X112.55 Y179.6 E800.54817
G1 X112.55 Y55.4 E804.67908
G1 F2700 E799.67908
;MESH:NONMESH
G0 F300 X112.55 Y55.4 Z1.4
G0 F9000 X112.25 Y55.4
G0 X112.15 Y180
;TIME_ELAPSED:1081.178047
;LAYER:6
;TYPE:WALL-INNER
;MESH:D790-17 Flexural.STL
G1 F2700 E804.67908
G1 F1500 X122.85 Y180 E805.03496
G1 X122.85 Y60.35 E809.01454
G1 X122.85 Y55 E809.19248
G1 X112.15 Y55 E809.54836
G1 X112.15 Y180 E813.70588
G1 F2700 E808.70588
G0 F9000 X112.02 Y54.87
G1 F2700 E813.70588
G0 F9000 X111.75 Y54.6
G1 F1500 X123.25 Y54.6 E814.08837
G1 X123.25 Y60.35 E814.27962
G1 X123.25 Y180.4 E818.27249
G1 X111.75 Y180.4 E818.65499
G1 X111.75 Y54.6 E822.83911
G1 F2700 E817.83911
G0 F9000 X112.02 Y54.87
G0 X111.62 Y180.53
G1 F2700 E822.83911
G0 F9000 X111.35 Y180.8
;TYPE:WALL-OUTER
G1 F1500 X123.65 Y180.8 E823.24821
G1 X123.65 Y60.35 E827.25439
G1 X123.65 Y54.2 E827.45894
G1 X111.35 Y54.2 E827.86804
G1 X111.35 Y180.8 E832.07878
G0 F9000 X111.62 Y180.53
G0 X112.25 Y179.6
G0 X112.55 Y179.6
;TYPE:SKIN
G1 F1500 X122.45 Y179.6 E832.40805
G1 X122.45 Y60.35 E836.37432
G1 X122.45 Y55.4 E836.53896
G1 X112.55 Y55.4 E836.86824
G1 X112.55 Y179.6 E840.99914
G0 F9000 X112.95 Y179.2
G1 F1500 X122.05 Y179.2 E841.30181
G1 X122.05 Y55.8 E845.40611
G1 X117.5 Y55.8 E845.55745
G1 X112.95 Y55.8 E845.70878
G1 X112.95 Y179.2 E849.81308
G0 F9000 X113.35 Y178.8
G1 F1500 X121.65 Y178.8 E850.08914
G1 X121.65 Y60.35 E854.0288
G1 X121.65 Y56.2 E854.16683
G1 X113.35 Y56.2 E854.44289
G1 X113.35 Y178.8 E858.52058
G0 F9000 X113.75 Y178.4
G1 F1500 X121.25 Y178.4 E858.77003
G1 X121.25 Y60.35 E862.69639
G1 X121.25 Y56.6 E862.82112
G1 X113.75 Y56.6 E863.07057
G1 X113.75 Y178.4 E867.12165
G0 F9000 X114.15 Y178
G1 F1500 X120.85 Y178 E867.3445
G1 X120.85 Y60.35 E871.25755
G1 X120.85 Y57 E871.36897
G1 X114.15 Y57 E871.59182
G1 X114.15 Y178 E875.61629
G0 F9000 X114.55 Y177.6
G1 F1500 X120.45 Y177.6 E875.81253
G1 X120.45 Y60.35 E879.71228
G1 X120.45 Y57.4 E879.8104
G1 X114.55 Y57.4 E880.00663
G1 X114.55 Y177.6 E884.0045
G0 F9000 X114.95 Y177.2
G1 F1500 X120.05 Y177.2 E884.17413
G1 X120.05 Y57.8 E888.14539
G1 X114.95 Y57.8 E888.31501
G1 X114.95 Y60.35 E888.39983
G1 X114.95 Y177.2 E892.28627
G0 F9000 X115.35 Y176.8
G1 F1500 X119.65 Y176.8 E892.42929
G1 X119.65 Y60.35 E896.30243
G1 X119.65 Y58.2 E896.37394
G1 X115.35 Y58.2 E896.51696
G1 X115.35 Y176.8 E900.46161
G0 F9000 X115.75 Y176.4
G1 F1500 X119.25 Y176.4 E900.57802
G1 X119.25 Y60.35 E904.43786
G1 X119.25 Y58.6 E904.49607
G1 X115.75 Y58.6 E904.61248
G1 X115.75 Y176.4 E908.53052
G0 F9000 X116.15 Y176
G1 F1500 X118.85 Y176 E908.62033
G1 X118.85 Y59 E912.51176
G1 X116.15 Y59 E912.60156
G1 X116.15 Y176 E916.493
G0 F9000 X116.55 Y175.6
G1 F1500 X118.45 Y175.6 E916.55619
G1 X118.45 Y174.65 E916.58779
G1 X118.45 Y59.4 E920.42102
G1 X116.55 Y59.4 E920.48422
G1 X116.55 Y175.6 E924.34904
G0 F9000 X116.95 Y175.2
G1 F1500 X118.05 Y175.2 E924.38563
G1 X118.05 Y59.8 E928.22385
G1 X116.95 Y59.8 E928.26044
G1 X116.95 Y60.35 E928.27873
G1 X116.95 Y175.2 E932.09865
G0 F9000 X117.325 Y174.825
G1 F1714.3 X117.675 Y174.825 E932.10884
G1 X117.675 Y60.35 E935.44036
G1 X117.675 Y60.175 E935.44546
G1 X117.325 Y60.175 E935.45564
G1 X117.325 Y174.825 E938.79226
G1 F2700 E933.79226
;MESH:NONMESH
G0 F300 X117.325 Y174.825 Z1.6
G0 F9000 X112.35 Y174.825
G0 X112.15 Y55
;TIME_ELAPSED:1249.667988
;LAYER:7
;TYPE:WALL-INNER
;MESH:D790-17 Flexural.STL
G1 F2700 E938.79226
G1 F1500 X122.85 Y55 E939.14814
G1 X122.85 Y60.35 E939.32608
G1 X122.85 Y180 E943.30566
G1 X112.15 Y180 E943.66154
G1 X112.15 Y55 E947.81906
G1 F2700 E942.81906
G0 F9000 X112.02 Y180.13
G1 F2700 E947.81906
G0 F9000 X111.75 Y180.4
G1 F1500 X123.25 Y180.4 E948.20155
G1 X123.25 Y60.35 E952.19443
G1 X123.25 Y54.6 E952.38567
G1 X111.75 Y54.6 E952.76817
G1 X111.75 Y180.4 E956.95229
G1 F2700 E951.95229
G0 F9000 X112.02 Y180.13
G0 X111.62 Y54.47
G1 F2700 E956.95229
G0 F9000 X111.35 Y54.2
;TYPE:WALL-OUTER
G1 F1500 X123.65 Y54.2 E957.36139
G1 X123.65 Y60.35 E957.56594
G1 X123.65 Y180.8 E961.57212
G1 X111.35 Y180.8 E961.98122
G1 X111.35 Y54.2 E966.19196
G1 F2700 E961.19196
G0 F9000 X111.62 Y54.47
G0 X112.35 Y60.175
G0 X117.325 Y60.175
;TYPE:SKIN
G1 F2700 E966.19196
G1 F1714.3 X117.675 Y60.175 E966.20214
G1 X117.675 Y60.35 E966.20723
G1 X117.675 Y174.825 E969.53876
G1 X117.325 Y174.825 E969.54894
G1 X117.325 Y60.175 E972.88556
G0 F9000 X116.95 Y59.8
G1 F1500 X118.05 Y59.8 E972.92214
G1 X118.05 Y60.35 E972.94044
G1 X118.05 Y175.2 E976.76036
G1 X116.95 Y175.2 E976.79695
G1 X116.95 Y59.8 E980.63517
G0 F9000 X116.55 Y59.4
G1 F1500 X118.45 Y59.4 E980.69836
G1 X118.45 Y60.35 E980.72996
G1 X118.45 Y175.6 E984.56319
G1 X116.55 Y175.6 E984.62639
G1 X116.55 Y59.4 E988.49121
G0 F9000 X116.15 Y59
G1 F1500 X118.85 Y59 E988.58102
G1 X118.85 Y60.35 E988.62592
G1 X118.85 Y176 E992.47245
G1 X116.15 Y176 E992.56225
G1 X116.15 Y59 E996.45369
G0 F9000 X115.75 Y58.6
G1 F1500 X119.25 Y58.6 E996.5701
G1 X119.25 Y60.35 E996.62831
G1 X119.25 Y176.4 E1000.48814
G1 X115.75 Y176.4 E1000.60455
G1 X115.75 Y58.6 E1004.5226
G0 F9000 X115.35 Y58.2
G1 F1500 X119.65 Y58.2 E1004.66562
G1 X119.65 Y60.35 E1004.73713
G1 X119.65 Y176.8 E1008.61027
G1 X115.35 Y176.8 E1008.75329
G1 X115.35 Y58.2 E1012.69794
G0 F9000 X114.95 Y57.8
G1 F1500 X120.05 Y57.8 E1012.86757
G1 X120.05 Y60.35 E1012.95238
G1 X120.05 Y177.2 E1016.83883
G1 X114.95 Y177.2 E1017.00845
G1 X114.95 Y57.8 E1020.97971
G0 F9000 X114.55 Y57.4
G1 F1500 X120.45 Y57.4 E1021.17595
G1 X120.45 Y60.35 E1021.27407
G1 X120.45 Y177.6 E1025.17382
G1 X114.55 Y177.6 E1025.37005
G1 X114.55 Y57.4 E1029.36792
G0 F9000 X114.15 Y57
G1 F1500 X120.85 Y57 E1029.59076
G1 X120.85 Y60.35 E1029.70218
G1 X120.85 Y178 E1033.61524
G1 X114.15 Y178 E1033.83808
G1 X114.15 Y57 E1037.86256
G0 F9000 X113.75 Y56.6
G1 F1500 X121.25 Y56.6 E1038.11201
G1 X121.25 Y60.35 E1038.23673
G1 X121.25 Y178.4 E1042.16309
G1 X113.75 Y178.4 E1042.41254
G1 X113.75 Y56.6 E1046.46363
G0 F9000 X113.35 Y56.2
G1 F1500 X121.65 Y56.2 E1046.73969
G1 X121.65 Y60.35 E1046.87772
G1 X121.65 Y178.8 E1050.81738
G1 X113.35 Y178.8 E1051.09344
G1 X113.35 Y56.2 E1055.17113
G0 F9000 X112.95 Y55.8
G1 F1500 X122.05 Y55.8 E1055.4738
G1 X122.05 Y60.35 E1055.62513
G1 X122.05 Y179.2 E1059.5781
G1 X112.95 Y179.2 E1059.88077
G1 X112.95 Y55.8 E1063.98507
G0 F9000 X112.55 Y55.4
G1 F1500 X122.45 Y55.4 E1064.31434
G1 X122.45 Y60.35 E1064.47898
G1 X122.45 Y179.6 E1068.44525
G1 X112.55 Y179.6 E1068.77453
G1 X112.55 Y55.4 E1072.90544
G1 F2700 E1067.90544
;MESH:NONMESH
G0 F300 X112.55 Y55.4 Z1.8
G0 F9000 X112.25 Y55.4
G0 X112.15 Y180
;TIME_ELAPSED:1418.637784
;LAYER:8
;TYPE:WALL-INNER
;MESH:D790-17 Flexural.STL
G1 F2700 E1072.90544
G1 F1500 X122.85 Y180 E1073.26132
G1 X122.85 Y60.35 E1077.24089
G1 X122.85 Y55 E1077.41884
G1 X112.15 Y55 E1077.77472
G1 X112.15 Y180 E1081.93224
G1 F2700 E1076.93224
G0 F9000 X112.02 Y54.87
G1 F2700 E1081.93224
G0 F9000 X111.75 Y54.6
G1 F1500 X123.25 Y54.6 E1082.31473
G1 X123.25 Y60.35 E1082.50597
G1 X123.25 Y180.4 E1086.49885
G1 X111.75 Y180.4 E1086.88135
G1 X111.75 Y54.6 E1091.06547
G1 F2700 E1086.06547
G0 F9000 X112.02 Y54.87
G0 X111.62 Y180.53
G1 F2700 E1091.06547
G0 F9000 X111.35 Y180.8
;TYPE:WALL-OUTER
G1 F1500 X123.65 Y180.8 E1091.47457
G1 X123.65 Y60.35 E1095.48075
G1 X123.65 Y54.2 E1095.6853
G1 X111.35 Y54.2 E1096.0944
G1 X111.35 Y180.8 E1100.30514
G0 F9000 X111.62 Y180.53
G0 X112.25 Y179.6
G0 X112.55 Y179.6
;TYPE:SKIN
G1 F1500 X122.45 Y179.6 E1100.63441
G1 X122.45 Y60.35 E1104.60068
G1 X122.45 Y55.4 E1104.76532
G1 X112.55 Y55.4 E1105.0946
G1 X112.55 Y179.6 E1109.2255
G0 F9000 X112.95 Y179.2
G1 F1500 X122.05 Y179.2 E1109.52817
G1 X122.05 Y55.8 E1113.63247
G1 X112.95 Y55.8 E1113.93514
G1 X112.95 Y179.2 E1118.03944
G0 F9000 X113.35 Y178.8
G1 F1500 X121.65 Y178.8 E1118.3155
G1 X121.65 Y60.35 E1122.25516
G1 X121.65 Y56.2 E1122.39319
G1 X113.35 Y56.2 E1122.66925
G1 X113.35 Y178.8 E1126.74694
G0 F9000 X113.75 Y178.4
G1 F1500 X121.25 Y178.4 E1126.99639
G1 X121.25 Y60.35 E1130.92275
G1 X121.25 Y56.6 E1131.04748
G1 X113.75 Y56.6 E1131.29693
G1 X113.75 Y178.4 E1135.34801
G0 F9000 X114.15 Y178
G1 F1500 X120.85 Y178 E1135.57086
G1 X120.85 Y60.35 E1139.48391
G1 X120.85 Y57 E1139.59533
G1 X114.15 Y57 E1139.81818
G1 X114.15 Y178 E1143.84265
G0 F9000 X114.55 Y177.6
G1 F1500 X120.45 Y177.6 E1144.03889
G1 X120.45 Y60.35 E1147.93864
G1 X120.45 Y57.4 E1148.03676
G1 X114.55 Y57.4 E1148.23299
G1 X114.55 Y177.6 E1152.23086
G0 F9000 X114.95 Y177.2
G1 F1500 X120.05 Y177.2 E1152.40049
G1 X120.05 Y57.8 E1156.37175
G1 X114.95 Y57.8 E1156.54137
G1 X114.95 Y177.2 E1160.51263
G0 F9000 X115.35 Y176.8
G1 F1500 X119.65 Y176.8 E1160.65565
G1 X119.65 Y60.35 E1164.52879
G1 X119.65 Y58.2 E1164.6003
G1 X115.35 Y58.2 E1164.74332
G1 X115.35 Y176.8 E1168.68797
G0 F9000 X115.75 Y176.4
G1 F1500 X119.25 Y176.4 E1168.80438
G1 X119.25 Y60.35 E1172.66422
G1 X119.25 Y58.6 E1172.72243
G1 X115.75 Y58.6 E1172.83884
G1 X115.75 Y176.4 E1176.75688
G0 F9000 X116.15 Y176
G1 F1500 X118.85 Y176 E1176.84668
G1 X118.85 Y59 E1180.73812
G1 X116.15 Y59 E1180.82792
G1 X116.15 Y176 E1184.71936
G0 F9000 X116.55 Y175.6
G1 F1500 X118.45 Y175.6 E1184.78255
G1 X118.45 Y60.35 E1188.61578
G1 X118.45 Y59.4 E1188.64738
G1 X116.55 Y59.4 E1188.71057
G1 X116.55 Y175.6 E1192.5754
G0 F9000 X116.95 Y175.2
G1 F1500 X118.05 Y175.2 E1192.61199
G1 X118.05 Y60.35 E1196.43191
G1 X118.05 Y59.8 E1196.45021
G1 X116.95 Y59.8 E1196.48679
G1 X116.95 Y175.2 E1200.32501
G0 F9000 X117.325 Y174.825
G1 F1714.3 X117.675 Y174.825 E1200.3352
G1 X117.675 Y60.35 E1203.66672
G1 X117.675 Y60.175 E1203.67181
G1 X117.325 Y60.175 E1203.682
G1 X117.325 Y174.825 E1207.01862
G1 F2700 E1202.01862
;MESH:NONMESH
G0 F300 X117.325 Y174.825 Z2
G0 F9000 X122.65 Y174.825
G0 X122.85 Y55
;TIME_ELAPSED:1587.134574
;LAYER:9
;TYPE:WALL-INNER
;MESH:D790-17 Flexural.STL
G1 F2700 E1207.01862
G1 F1500 X122.85 Y180 E1211.17613
G1 X112.15 Y180 E1211.53202
G1 X112.15 Y55 E1215.68953
G1 X122.85 Y55 E1216.04542
G1 F2700 E1211.04542
G0 F9000 X112.322 Y55.172
G0 X112.02 Y180.13
G1 F2700 E1216.04542
G0 F9000 X111.75 Y180.4
G1 F1500 X123.25 Y180.4 E1216.42791
G1 X123.25 Y54.6 E1220.61203
G1 X111.75 Y54.6 E1220.99452
G1 X111.75 Y180.4 E1225.17865
G1 F2700 E1220.17865
G0 F9000 X112.02 Y180.13
G0 X122.932 Y180.082
G0 X123.38 Y54.47
G1 F2700 E1225.17865
G0 F9000 X123.65 Y54.2
;TYPE:WALL-OUTER
G1 F1500 X123.65 Y180.8 E1229.38938
G1 X111.35 Y180.8 E1229.79848
G1 X111.35 Y54.2 E1234.00922
G1 X123.65 Y54.2 E1234.41832
G1 F2700 E1229.41832
G0 F9000 X123.38 Y54.47
G0 X117.325 Y55.2
G0 X117.325 Y60.175
;TYPE:SKIN
G1 F2700 E1234.41832
G1 F1714.3 X117.675 Y60.175 E1234.4285
G1 X117.675 Y60.35 E1234.43359
G1 X117.675 Y174.825 E1237.76512
G1 X117.325 Y174.825 E1237.7753
G1 X117.325 Y60.175 E1241.11192
G0 F9000 X116.95 Y59.8
G1 F1500 X118.05 Y59.8 E1241.1485
G1 X118.05 Y60.35 E1241.1668
G1 X118.05 Y175.2 E1244.98672
G1 X116.95 Y175.2 E1245.02331
G1 X116.95 Y59.8 E1248.86153
G0 F9000 X116.55 Y59.4
G1 F1500 X118.45 Y59.4 E1248.92472
G1 X118.45 Y60.35 E1248.95632
G1 X118.45 Y175.6 E1252.78955
G1 X116.55 Y175.6 E1252.85274
G1 X116.55 Y59.4 E1256.71757
G0 F9000 X116.15 Y59
G1 F1500 X118.85 Y59 E1256.80738
G1 X118.85 Y60.35 E1256.85228
G1 X118.85 Y176 E1260.69881
G1 X116.15 Y176 E1260.78861
G1 X116.15 Y59 E1264.68005
G0 F9000 X115.75 Y58.6
G1 F1500 X119.25 Y58.6 E1264.79646
G1 X119.25 Y60.35 E1264.85466
G1 X119.25 Y176.4 E1268.7145
G1 X115.75 Y176.4 E1268.83091
G1 X115.75 Y58.6 E1272.74896
G0 F9000 X115.35 Y58.2
G1 F1500 X119.65 Y58.2 E1272.89198
G1 X119.65 Y60.35 E1272.96349
G1 X119.65 Y176.8 E1276.83663
G1 X115.35 Y176.8 E1276.97965
G1 X115.35 Y58.2 E1280.9243
G0 F9000 X114.95 Y57.8
G1 F1500 X120.05 Y57.8 E1281.09393
G1 X120.05 Y60.35 E1281.17874
G1 X120.05 Y177.2 E1285.06519
G1 X114.95 Y177.2 E1285.23481
G1 X114.95 Y57.8 E1289.20607
G0 F9000 X114.55 Y57.4
G1 F1500 X120.45 Y57.4 E1289.40231
G1 X120.45 Y174.65 E1293.30206
G1 X120.45 Y177.6 E1293.40018
G1 X114.55 Y177.6 E1293.59641
G1 X114.55 Y57.4 E1297.59428
G0 F9000 X114.15 Y57
G1 F1500 X120.85 Y57 E1297.81712
G1 X120.85 Y60.35 E1297.92854
G1 X120.85 Y178 E1301.8416
G1 X114.15 Y178 E1302.06444
G1 X114.15 Y57 E1306.08892
G0 F9000 X113.75 Y56.6
G1 F1500 X121.25 Y56.6 E1306.33837
G1 X121.25 Y60.35 E1306.46309
G1 X121.25 Y178.4 E1310.38945
G1 X113.75 Y178.4 E1310.6389
G1 X113.75 Y56.6 E1314.68999
G0 F9000 X113.35 Y56.2
G1 F1500 X121.65 Y56.2 E1314.96605
G1 X121.65 Y60.35 E1315.10408
G1 X121.65 Y178.8 E1319.04374
G1 X113.35 Y178.8 E1319.3198
G1 X113.35 Y56.2 E1323.39749
G0 F9000 X112.95 Y55.8
G1 F1500 X122.05 Y55.8 E1323.70016
G1 X122.05 Y60.35 E1323.85149
G1 X122.05 Y179.2 E1327.80446
G1 X112.95 Y179.2 E1328.10713
G1 X112.95 Y55.8 E1332.21143
G0 F9000 X112.55 Y55.4
G1 F1500 X122.45 Y55.4 E1332.5407
G1 X122.45 Y60.35 E1332.70534
G1 X122.45 Y179.6 E1336.67161
G1 X112.55 Y179.6 E1337.00089
G1 X112.55 Y55.4 E1341.1318
G1 F2700 E1336.1318
;MESH:NONMESH
G0 F300 X112.55 Y55.4 Z2.2
G0 F9000 X112.25 Y55.4
G0 X112.15 Y180
;TIME_ELAPSED:1756.641932
;LAYER:10
;TYPE:WALL-INNER
;MESH:D790-17 Flexural.STL
G1 F2700 E1341.1318
G1 F1500 X122.85 Y180 E1341.48768
G1 X122.85 Y60.35 E1345.46725
G1 X122.85 Y55 E1345.6452
G1 X112.15 Y55 E1346.00108
G1 X112.15 Y180 E1350.1586
G1 F2700 E1345.1586
G0 F9000 X112.02 Y54.87
G1 F2700 E1350.1586
G0 F9000 X111.75 Y54.6
G1 F1500 X123.25 Y54.6 E1350.54109
G1 X123.25 Y60.35 E1350.73233
G1 X123.25 Y180.4 E1354.72521
G1 X111.75 Y180.4 E1355.1077
G1 X111.75 Y54.6 E1359.29183
G1 F2700 E1354.29183
G0 F9000 X112.02 Y54.87
G0 X111.62 Y180.53
G1 F2700 E1359.29183
G0 F9000 X111.35 Y180.8
;TYPE:WALL-OUTER
G1 F1500 X123.65 Y180.8 E1359.70093
G1 X123.65 Y60.35 E1363.70711
G1 X123.65 Y54.2 E1363.91166
G1 X111.35 Y54.2 E1364.32076
G1 X111.35 Y180.8 E1368.53149
G0 F9000 X111.62 Y180.53
G0 X112.25 Y179.6
G0 X112.55 Y179.6
;TYPE:SKIN
G1 F1500 X122.45 Y179.6 E1368.86077
G1 X122.45 Y60.35 E1372.82704
G1 X122.45 Y55.4 E1372.99168
G1 X112.55 Y55.4 E1373.32095
G1 X112.55 Y179.6 E1377.45186
G0 F9000 X112.95 Y179.2
G1 F1500 X122.05 Y179.2 E1377.75453
G1 X122.05 Y60.35 E1381.7075
G1 X122.05 Y55.8 E1381.85883
G1 X112.95 Y55.8 E1382.1615
G1 X112.95 Y179.2 E1386.2658
G0 F9000 X113.35 Y178.8
G1 F1500 X121.65 Y178.8 E1386.54186
G1 X121.65 Y60.35 E1390.48152
G1 X121.65 Y56.2 E1390.61955
G1 X113.35 Y56.2 E1390.89561
G1 X113.35 Y178.8 E1394.9733
G0 F9000 X113.75 Y178.4
G1 F1500 X121.25 Y178.4 E1395.22275
G1 X121.25 Y60.35 E1399.14911
G1 X121.25 Y56.6 E1399.27384
G1 X113.75 Y56.6 E1399.52329
G1 X113.75 Y178.4 E1403.57437
G0 F9000 X114.15 Y178
G1 F1500 X120.85 Y178 E1403.79722
G1 X120.85 Y60.35 E1407.71027
G1 X120.85 Y57 E1407.82169
G1 X114.15 Y57 E1408.04454
G1 X114.15 Y178 E1412.06901
G0 F9000 X114.55 Y177.6
G1 F1500 X120.45 Y177.6 E1412.26525
G1 X120.45 Y60.35 E1416.165
G1 X120.45 Y57.4 E1416.26311
G1 X114.55 Y57.4 E1416.45935
G1 X114.55 Y177.6 E1420.45722
G0 F9000 X114.95 Y177.2
G1 F1500 X120.05 Y177.2 E1420.62684
G1 X120.05 Y60.35 E1424.51329
G1 X120.05 Y57.8 E1424.5981
G1 X114.95 Y57.8 E1424.76773
G1 X114.95 Y177.2 E1428.73899
G0 F9000 X115.35 Y176.8
G1 F1500 X119.65 Y176.8 E1428.88201
G1 X119.65 Y58.2 E1432.82666
G1 X115.35 Y58.2 E1432.96968
G1 X115.35 Y176.8 E1436.91433
G0 F9000 X115.75 Y176.4
G1 F1500 X119.25 Y176.4 E1437.03074
G1 X119.25 Y60.35 E1440.89058
G1 X119.25 Y58.6 E1440.94879
G1 X115.75 Y58.6 E1441.0652
G1 X115.75 Y176.4 E1444.98324
G0 F9000 X116.15 Y176
G1 F1500 X118.85 Y176 E1445.07304
G1 X118.85 Y59 E1448.96448
G1 X116.15 Y59 E1449.05428
G1 X116.15 Y176 E1452.94572
G0 F9000 X116.55 Y175.6
G1 F1500 X118.45 Y175.6 E1453.00891
G1 X118.45 Y59.4 E1456.87374
G1 X116.55 Y59.4 E1456.93693
G1 X116.55 Y175.6 E1460.80176
G0 F9000 X116.95 Y175.2
G1 F1500 X118.05 Y175.2 E1460.83835
G1 X118.05 Y60.35 E1464.65827
G1 X118.05 Y59.8 E1464.67657
G1 X116.95 Y59.8 E1464.71315
G1 X116.95 Y175.2 E1468.55137
G0 F9000 X117.325 Y174.825
G1 F1714.3 X117.675 Y174.825 E1468.56156
G1 X117.675 Y60.175 E1471.89817
G1 X117.325 Y60.175 E1471.90836
G1 X117.325 Y60.35 E1471.91345
G1 X117.325 Y174.825 E1475.24497
G1 F2700 E1470.24497
;MESH:NONMESH
G0 F300 X117.325 Y174.825 Z2.4
G0 F9000 X112.35 Y174.825
G0 X112.15 Y55
;TIME_ELAPSED:1925.131873
;LAYER:11
;TYPE:WALL-INNER
;MESH:D790-17 Flexural.STL
G1 F2700 E1475.24497
G1 F1500 X122.85 Y55 E1475.60086
G1 X122.85 Y60.35 E1475.7788
G1 X122.85 Y180 E1479.75838
G1 X112.15 Y180 E1480.11426
G1 X112.15 Y55 E1484.27178
G1 F2700 E1479.27178
G0 F9000 X112.02 Y180.13
G1 F2700 E1484.27178
G0 F9000 X111.75 Y180.4
G1 F1500 X123.25 Y180.4 E1484.65427
G1 X123.25 Y60.35 E1488.64715
G1 X123.25 Y54.6 E1488.83839
G1 X111.75 Y54.6 E1489.22088
G1 X111.75 Y180.4 E1493.40501
G1 F2700 E1488.40501
G0 F9000 X112.02 Y180.13
G0 X111.62 Y54.47
G1 F2700 E1493.40501
G0 F9000 X111.35 Y54.2
;TYPE:WALL-OUTER
G1 F1500 X123.65 Y54.2 E1493.81411
G1 X123.65 Y60.35 E1494.01866
G1 X123.65 Y180.8 E1498.02484
G1 X111.35 Y180.8 E1498.43394
G1 X111.35 Y54.2 E1502.64467
G1 F2700 E1497.64467
G0 F9000 X111.62 Y54.47
G0 X112.35 Y60.175
G0 X117.325 Y60.175
;TYPE:SKIN
G1 F2700 E1502.64467
G1 F1714.3 X117.675 Y60.175 E1502.65486
G1 X117.675 Y60.35 E1502.65995
G1 X117.675 Y174.825 E1505.99148
G1 X117.325 Y174.825 E1506.00166
G1 X117.325 Y60.175 E1509.33828
G0 F9000 X116.95 Y59.8
G1 F1500 X118.05 Y59.8 E1509.37486
G1 X118.05 Y60.35 E1509.39316
G1 X118.05 Y175.2 E1513.21308
G1 X116.95 Y175.2 E1513.24967
G1 X116.95 Y59.8 E1517.08789
G0 F9000 X116.55 Y59.4
G1 F1500 X118.45 Y59.4 E1517.15108
G1 X118.45 Y60.35 E1517.18268
G1 X118.45 Y175.6 E1521.01591
G1 X116.55 Y175.6 E1521.0791
G1 X116.55 Y59.4 E1524.94393
G0 F9000 X116.15 Y59
G1 F1500 X118.85 Y59 E1525.03373
G1 X118.85 Y60.35 E1525.07864
G1 X118.85 Y176 E1528.92517
G1 X116.15 Y176 E1529.01497
G1 X116.15 Y59 E1532.90641
G0 F9000 X115.75 Y58.6
G1 F1500 X119.25 Y58.6 E1533.02282
G1 X119.25 Y60.35 E1533.08102
G1 X119.25 Y176.4 E1536.94086
G1 X115.75 Y176.4 E1537.05727
G1 X115.75 Y58.6 E1540.97532
G0 F9000 X115.35 Y58.2
G1 F1500 X119.65 Y58.2 E1541.11834
G1 X119.65 Y60.35 E1541.18984
G1 X119.65 Y176.8 E1545.06299
G1 X115.35 Y176.8 E1545.20601
G1 X115.35 Y58.2 E1549.15066
G1 F2700 E1544.15066
G0 F9000 X110.485 Y58.2
G0 X110.497 Y181.653
G0 X124.503 Y181.653
G0 X124.515 Y177.2
G0 X120.05 Y177.2
G1 F2700 E1549.15066
G1 F1500 X114.95 Y177.2 E1549.32028
G1 X114.95 Y57.8 E1553.29154
G1 X117.5 Y57.8 E1553.37636
G1 X120.05 Y57.8 E1553.46117
G1 X120.05 Y177.2 E1557.43243
G1 F2700 E1552.43243
G0 F9000 X124.515 Y177.2
G0 X124.503 Y53.347
G0 X110.497 Y53.347
G0 X110.485 Y57.4
G0 X114.55 Y57.4
G1 F2700 E1557.43243
G1 F1500 X120.45 Y57.4 E1557.62867
G1 X120.45 Y60.35 E1557.72678
G1 X120.45 Y177.6 E1561.62653
G1 X114.55 Y177.6 E1561.82277
G1 X114.55 Y57.4 E1565.82064
G0 F9000 X114.15 Y57
G1 F1500 X120.85 Y57 E1566.04348
G1 X120.85 Y60.35 E1566.1549
G1 X120.85 Y178 E1570.06796
G1 X114.15 Y178 E1570.2908
G1 X114.15 Y57 E1574.31528
G0 F9000 X113.75 Y56.6
G1 F1500 X121.25 Y56.6 E1574.56473
G1 X121.25 Y60.35 E1574.68945
G1 X121.25 Y178.4 E1578.61581
G1 X113.75 Y178.4 E1578.86526
G1 X113.75 Y56.6 E1582.91635
G0 F9000 X113.35 Y56.2
G1 F1500 X121.65 Y56.2 E1583.19241
G1 X121.65 Y60.35 E1583.33044
G1 X121.65 Y178.8 E1587.2701
G1 X113.35 Y178.8 E1587.54616
G1 X113.35 Y56.2 E1591.62385
G0 F9000 X112.95 Y55.8
G1 F1500 X122.05 Y55.8 E1591.92652
G1 X122.05 Y60.35 E1592.07785
G1 X122.05 Y179.2 E1596.03082
G1 X112.95 Y179.2 E1596.33349
G1 X112.95 Y55.8 E1600.43779
G0 F9000 X112.55 Y55.4
G1 F1500 X122.45 Y55.4 E1600.76706
G1 X122.45 Y60.35 E1600.9317
G1 X122.45 Y179.6 E1604.89797
G1 X112.55 Y179.6 E1605.22725
G1 X112.55 Y55.4 E1609.35815
G1 F2700 E1604.35815
;MESH:NONMESH
G0 F300 X112.55 Y55.4 Z2.6
G0 F9000 X112.25 Y55.4
G0 X112.15 Y180
;TIME_ELAPSED:2098.524546
;LAYER:12
;TYPE:WALL-INNER
;MESH:D790-17 Flexural.STL
G1 F2700 E1609.35815
G1 F1500 X122.85 Y180 E1609.71404
G1 X122.85 Y60.35 E1613.69361
G1 X122.85 Y55 E1613.87155
G1 X112.15 Y55 E1614.22744
G1 X112.15 Y180 E1618.38496
G1 F2700 E1613.38496
G0 F9000 X112.02 Y54.87
G1 F2700 E1618.38496
G0 F9000 X111.75 Y54.6
G1 F1500 X123.25 Y54.6 E1618.76745
G1 X123.25 Y60.35 E1618.95869
G1 X123.25 Y180.4 E1622.95157
G1 X111.75 Y180.4 E1623.33406
G1 X111.75 Y54.6 E1627.51819
G1 F2700 E1622.51819
G0 F9000 X112.02 Y54.87
G0 X111.62 Y180.53
G1 F2700 E1627.51819
G0 F9000 X111.35 Y180.8
;TYPE:WALL-OUTER
G1 F1500 X123.65 Y180.8 E1627.92729
G1 X123.65 Y60.35 E1631.93347
G1 X123.65 Y54.2 E1632.13802
G1 X111.35 Y54.2 E1632.54712
G1 X111.35 Y180.8 E1636.75785
G0 F9000 X111.62 Y180.53
G0 X112.25 Y179.6
G0 X112.55 Y179.6
;TYPE:SKIN
G1 F1500 X122.45 Y179.6 E1637.08713
G1 X122.45 Y60.35 E1641.0534
G1 X122.45 Y55.4 E1641.21804
G1 X112.55 Y55.4 E1641.54731
G1 X112.55 Y179.6 E1645.67822
G0 F9000 X112.95 Y179.2
G1 F1500 X122.05 Y179.2 E1645.98089
G1 X122.05 Y60.35 E1649.93386
G1 X122.05 Y55.8 E1650.08519
G1 X112.95 Y55.8 E1650.38786
G1 X112.95 Y179.2 E1654.49216
G0 F9000 X113.35 Y178.8
G1 F1500 X121.65 Y178.8 E1654.76822
G1 X121.65 Y60.35 E1658.70788
G1 X121.65 Y56.2 E1658.84591
G1 X113.35 Y56.2 E1659.12197
G1 X113.35 Y178.8 E1663.19966
G0 F9000 X113.75 Y178.4
G1 F1500 X121.25 Y178.4 E1663.44911
G1 X121.25 Y60.35 E1667.37547
G1 X121.25 Y56.6 E1667.5002
G1 X113.75 Y56.6 E1667.74965
G1 X113.75 Y178.4 E1671.80073
G0 F9000 X114.15 Y178
G1 F1500 X120.85 Y178 E1672.02357
G1 X120.85 Y60.35 E1675.93663
G1 X120.85 Y57 E1676.04805
G1 X114.15 Y57 E1676.27089
G1 X114.15 Y178 E1680.29537
G0 F9000 X114.55 Y177.6
G1 F1500 X120.45 Y177.6 E1680.49161
G1 X120.45 Y60.35 E1684.39136
G1 X120.45 Y57.4 E1684.48947
G1 X114.55 Y57.4 E1684.68571
G1 X114.55 Y177.6 E1688.68358
G0 F9000 X114.95 Y177.2
G1 F1500 X120.05 Y177.2 E1688.8532
G1 X120.05 Y60.35 E1692.73965
G1 X120.05 Y57.8 E1692.82446
G1 X114.95 Y57.8 E1692.99409
G1 X114.95 Y177.2 E1696.96535
G0 F9000 X115.35 Y176.8
G1 F1500 X117.5 Y176.8 E1697.03686
G1 X119.65 Y176.8 E1697.10837
G1 X119.65 Y58.2 E1701.05302
G1 X115.35 Y58.2 E1701.19604
G1 X115.35 Y176.8 E1705.14069
G0 F9000 X115.75 Y176.4
G1 F1500 X119.25 Y176.4 E1705.2571
G1 X119.25 Y58.6 E1709.17515
G1 X115.75 Y58.6 E1709.29156
G1 X115.75 Y174.65 E1713.15139
G1 X115.75 Y176.4 E1713.2096
G0 F9000 X116.15 Y176
G1 F1500 X118.85 Y176 E1713.2994
G1 X118.85 Y60.35 E1717.14594
G1 X118.85 Y59 E1717.19084
G1 X116.15 Y59 E1717.28064
G1 X116.15 Y176 E1721.17208
G0 F9000 X116.55 Y175.6
G1 F1500 X118.45 Y175.6 E1721.23527
G1 X118.45 Y60.35 E1725.0685
G1 X118.45 Y59.4 E1725.1001
G1 X116.55 Y59.4 E1725.16329
G1 X116.55 Y175.6 E1729.02812
G0 F9000 X116.95 Y175.2
G1 F1500 X118.05 Y175.2 E1729.06471
G1 X118.05 Y60.35 E1732.88463
G1 X118.05 Y59.8 E1732.90293
G1 X116.95 Y59.8 E1732.93951
G1 X116.95 Y175.2 E1736.77773
G0 F9000 X117.325 Y174.825
G1 F1714.3 X117.675 Y174.825 E1736.78792
G1 X117.675 Y60.35 E1740.11944
G1 X117.675 Y60.175 E1740.12453
G1 X117.325 Y60.175 E1740.13472
G1 X117.325 Y174.825 E1743.47133
G1 F2700 E1738.47133
;MESH:NONMESH
G0 F300 X117.325 Y174.825 Z2.8
G0 F9000 X112.35 Y174.825
G0 X112.15 Y55
;TIME_ELAPSED:2267.014487
;LAYER:13
;TYPE:WALL-INNER
;MESH:D790-17 Flexural.STL
G1 F2700 E1743.47133
G1 F1500 X122.85 Y55 E1743.82722
G1 X122.85 Y60.35 E1744.00516
G1 X122.85 Y180 E1747.98473
G1 X112.15 Y180 E1748.34062
G1 X112.15 Y55 E1752.49813
G1 F2700 E1747.49813
G0 F9000 X112.02 Y180.13
G1 F2700 E1752.49813
G0 F9000 X111.75 Y180.4
G1 F1500 X123.25 Y180.4 E1752.88063
G1 X123.25 Y60.35 E1756.87351
G1 X123.25 Y54.6 E1757.06475
G1 X111.75 Y54.6 E1757.44724
G1 X111.75 Y180.4 E1761.63137
G1 F2700 E1756.63137
G0 F9000 X112.02 Y180.13
G0 X111.62 Y54.47
G1 F2700 E1761.63137
G0 F9000 X111.35 Y54.2
;TYPE:WALL-OUTER
G1 F1500 X123.65 Y54.2 E1762.04047
G1 X123.65 Y60.35 E1762.24502
G1 X123.65 Y180.8 E1766.2512
G1 X111.35 Y180.8 E1766.6603
G1 X111.35 Y54.2 E1770.87103
G1 F2700 E1765.87103
G0 F9000 X111.62 Y54.47
G0 X112.35 Y60.175
G0 X117.325 Y60.175
;TYPE:SKIN
G1 F2700 E1770.87103
G1 F1714.3 X117.675 Y60.175 E1770.88122
G1 X117.675 Y60.35 E1770.88631
G1 X117.675 Y174.825 E1774.21783
G1 X117.325 Y174.825 E1774.22802
G1 X117.325 Y60.175 E1777.56464
G0 F9000 X116.95 Y59.8
G1 F1500 X118.05 Y59.8 E1777.60122
G1 X118.05 Y60.35 E1777.61951
G1 X118.05 Y175.2 E1781.43944
G1 X116.95 Y175.2 E1781.47603
G1 X116.95 Y59.8 E1785.31425
G0 F9000 X116.55 Y59.4
G1 F1500 X118.45 Y59.4 E1785.37744
G1 X118.45 Y60.35 E1785.40904
G1 X118.45 Y175.6 E1789.24227
G1 X116.55 Y175.6 E1789.30546
G1 X116.55 Y59.4 E1793.17029
G0 F9000 X116.15 Y59
G1 F1500 X118.85 Y59 E1793.26009
G1 X118.85 Y174.65 E1797.10663
G1 X118.85 Y176 E1797.15153
G1 X116.15 Y176 E1797.24133
G1 X116.15 Y59 E1801.13277
G0 F9000 X115.75 Y58.6
G1 F1500 X119.25 Y58.6 E1801.24918
G1 X119.25 Y60.35 E1801.30738
G1 X119.25 Y176.4 E1805.16722
G1 X115.75 Y176.4 E1805.28363
G1 X115.75 Y58.6 E1809.20168
G0 F9000 X115.35 Y58.2
G1 F1500 X119.65 Y58.2 E1809.34469
G1 X119.65 Y60.35 E1809.4162
G1 X119.65 Y176.8 E1813.28935
G1 X115.35 Y176.8 E1813.43237
G1 X115.35 Y58.2 E1817.37702
G0 F9000 X114.95 Y57.8
G1 F1500 X120.05 Y57.8 E1817.54664
G1 X120.05 Y60.35 E1817.63146
G1 X120.05 Y177.2 E1821.5179
G1 X114.95 Y177.2 E1821.68753
G1 X114.95 Y57.8 E1825.65879
G0 F9000 X114.55 Y57.4
G1 F1500 X120.45 Y57.4 E1825.85503
G1 X120.45 Y60.35 E1825.95314
G1 X120.45 Y177.6 E1829.85289
G1 X114.55 Y177.6 E1830.04913
G1 X114.55 Y57.4 E1834.047
G0 F9000 X114.15 Y57
G1 F1500 X120.85 Y57 E1834.26984
G1 X120.85 Y60.35 E1834.38126
G1 X120.85 Y178 E1838.29432
G1 X114.15 Y178 E1838.51716
G1 X114.15 Y57 E1842.54164
G1 F2700 E1837.54164
G0 F9000 X110.485 Y57
G0 X110.497 Y181.653
G0 X121.25 Y181.665
G0 X121.25 Y178.4
G1 F2700 E1842.54164
G1 F1500 X113.75 Y178.4 E1842.79109
G1 X113.75 Y56.6 E1846.84217
G1 X117.5 Y56.6 E1846.9669
G1 X121.25 Y56.6 E1847.09162
G1 X121.25 Y178.4 E1851.14271
G1 F2700 E1846.14271
G0 F9000 X121.25 Y181.665
G0 X110.497 Y181.653
G0 X110.485 Y56.2
G0 X113.35 Y56.2
G1 F2700 E1851.14271
G1 F1500 X121.65 Y56.2 E1851.41877
G1 X121.65 Y60.35 E1851.55679
G1 X121.65 Y178.8 E1855.49646
G1 X113.35 Y178.8 E1855.77252
G1 X113.35 Y56.2 E1859.85021
G0 F9000 X112.95 Y55.8
G1 F1500 X122.05 Y55.8 E1860.15288
G1 X122.05 Y60.35 E1860.30421
G1 X122.05 Y179.2 E1864.25718
G1 X112.95 Y179.2 E1864.55984
G1 X112.95 Y55.8 E1868.66415
G1 F2700 E1863.66415
G0 F9000 X112.25 Y55.8
G0 X112.322 Y179.828
G0 X122.678 Y179.828
G1 F2700 E1868.66415
G0 F9000 X122.45 Y179.6
G1 F1500 X112.55 Y179.6 E1868.99342
G1 X112.55 Y55.4 E1873.12433
G1 X117.5 Y55.4 E1873.28897
G1 X122.45 Y55.4 E1873.4536
G1 X122.45 Y179.6 E1877.58451
;MESH:NONMESH
G0 F300 X122.45 Y179.6 Z3
G0 F9000 X122.75 Y179.6
G0 X112.15 Y180
;TIME_ELAPSED:2440.663559
;LAYER:14
;TYPE:WALL-INNER
;MESH:D790-17 Flexural.STL
G1 F1500 X122.85 Y180 E1877.9404
G1 X122.85 Y60.35 E1881.91997
G1 X122.85 Y55 E1882.09791
G1 X112.15 Y55 E1882.4538
G1 X112.15 Y180 E1886.61131
G1 F2700 E1881.61131
G0 F9000 X112.02 Y54.87
G1 F2700 E1886.61131
G0 F9000 X111.75 Y54.6
G1 F1500 X123.25 Y54.6 E1886.99381
G1 X123.25 Y60.35 E1887.18505
G1 X123.25 Y180.4 E1891.17793
G1 X111.75 Y180.4 E1891.56042
G1 X111.75 Y54.6 E1895.74455
G1 F2700 E1890.74455
G0 F9000 X112.02 Y54.87
G0 X111.62 Y180.53
G1 F2700 E1895.74455
G0 F9000 X111.35 Y180.8
;TYPE:WALL-OUTER
G1 F1500 X123.65 Y180.8 E1896.15365
G1 X123.65 Y60.35 E1900.15983
G1 X123.65 Y54.2 E1900.36438
G1 X111.35 Y54.2 E1900.77348
G1 X111.35 Y180.8 E1904.98421
G0 F9000 X111.62 Y180.53
G0 X112.25 Y179.6
G0 X112.55 Y179.6
;TYPE:SKIN
G1 F1500 X122.45 Y179.6 E1905.31349
G1 X122.45 Y60.35 E1909.27976
G1 X122.45 Y55.4 E1909.4444
G1 X112.55 Y55.4 E1909.77367
G1 X112.55 Y179.6 E1913.90458
G0 F9000 X112.95 Y179.2
G1 F1500 X122.05 Y179.2 E1914.20725
G1 X122.05 Y60.35 E1918.16022
G1 X122.05 Y55.8 E1918.31155
G1 X112.95 Y55.8 E1918.61422
G1 X112.95 Y179.2 E1922.71852
G0 F9000 X113.35 Y178.8
G1 F1500 X121.65 Y178.8 E1922.99458
G1 X121.65 Y60.35 E1926.93424
G1 X121.65 Y56.2 E1927.07227
G1 X113.35 Y56.2 E1927.34833
G1 X113.35 Y178.8 E1931.42602
G0 F9000 X113.75 Y178.4
G1 F1500 X121.25 Y178.4 E1931.67547
G1 X121.25 Y60.35 E1935.60183
G1 X121.25 Y56.6 E1935.72656
G1 X113.75 Y56.6 E1935.97601
G1 X113.75 Y178.4 E1940.02709
G0 F9000 X114.15 Y178
G1 F1500 X120.85 Y178 E1940.24993
G1 X120.85 Y60.35 E1944.16299
G1 X120.85 Y57 E1944.27441
G1 X114.15 Y57 E1944.49725
G1 X114.15 Y178 E1948.52173
G0 F9000 X114.55 Y177.6
G1 F1500 X120.45 Y177.6 E1948.71796
G1 X120.45 Y57.4 E1952.71583
G1 X114.55 Y57.4 E1952.91207
G1 X114.55 Y177.6 E1956.90994
G0 F9000 X114.95 Y177.2
G1 F1500 X120.05 Y177.2 E1957.07956
G1 X120.05 Y60.35 E1960.96601
G1 X120.05 Y57.8 E1961.05082
G1 X114.95 Y57.8 E1961.22045
G1 X114.95 Y177.2 E1965.19171
G0 F9000 X115.35 Y176.8
G1 F1500 X119.65 Y176.8 E1965.33473
G1 X119.65 Y60.35 E1969.20787
G1 X119.65 Y58.2 E1969.27938
G1 X115.35 Y58.2 E1969.4224
G1 X115.35 Y176.8 E1973.36705
G0 F9000 X115.75 Y176.4
G1 F1500 X119.25 Y176.4 E1973.48346
G1 X119.25 Y58.6 E1977.4015
G1 X115.75 Y58.6 E1977.51792
G1 X115.75 Y176.4 E1981.43596
G0 F9000 X116.15 Y176
G1 F1500 X118.85 Y176 E1981.52576
G1 X118.85 Y60.35 E1985.3723
G1 X118.85 Y59 E1985.4172
G1 X116.15 Y59 E1985.507
G1 X116.15 Y176 E1989.39844
G0 F9000 X116.55 Y175.6
G1 F1500 X118.45 Y175.6 E1989.46163
G1 X118.45 Y60.35 E1993.29486
G1 X118.45 Y59.4 E1993.32646
G1 X116.55 Y59.4 E1993.38965
G1 X116.55 Y175.6 E1997.25448
G0 F9000 X116.95 Y175.2
G1 F1500 X118.05 Y175.2 E1997.29107
G1 X118.05 Y60.35 E2001.11099
G1 X118.05 Y59.8 E2001.12929
G1 X116.95 Y59.8 E2001.16587
G1 X116.95 Y175.2 E2005.00409
G0 F9000 X117.325 Y174.825
G1 F1714.3 X117.675 Y174.825 E2005.01428
G1 X117.675 Y60.35 E2008.3458
G1 X117.675 Y60.175 E2008.35089
G1 X117.325 Y60.175 E2008.36108
G1 X117.325 Y174.825 E2011.69769
G1 F2700 E2006.69769
;MESH:NONMESH
G0 F300 X117.325 Y174.825 Z3.2
G0 F9000 X112.35 Y174.825
G0 X112.15 Y55
;TIME_ELAPSED:2608.959071
;LAYER:15
;TYPE:WALL-INNER
;MESH:D790-17 Flexural.STL
G1 F2700 E2011.69769
G1 F1500 X122.85 Y55 E2012.05358
G1 X122.85 Y174.65 E2016.03315
G1 X122.85 Y180 E2016.21109
G1 X112.15 Y180 E2016.56698
G1 X112.15 Y55 E2020.72449
G1 F2700 E2015.72449
G0 F9000 X112.02 Y180.13
G1 F2700 E2020.72449
G0 F9000 X111.75 Y180.4
G1 F1500 X123.25 Y180.4 E2021.10699
G1 X123.25 Y174.65 E2021.29823
G1 X123.25 Y54.6 E2025.29111
G1 X111.75 Y54.6 E2025.6736
G1 X111.75 Y180.4 E2029.85773
G1 F2700 E2024.85773
G0 F9000 X112.02 Y180.13
G0 X111.62 Y54.47
G1 F2700 E2029.85773
G0 F9000 X111.35 Y54.2
;TYPE:WALL-OUTER
G1 F1500 X123.65 Y54.2 E2030.26683
G1 X123.65 Y174.65 E2034.27301
G1 X123.65 Y180.8 E2034.47756
G1 X111.35 Y180.8 E2034.88666
G1 X111.35 Y54.2 E2039.09739
G1 F2700 E2034.09739
G0 F9000 X111.62 Y54.47
G0 X117.675 Y55.2
G0 X117.675 Y60.175
;TYPE:SKIN
G1 F2700 E2039.09739
G1 F1714.3 X117.675 Y174.825 E2042.43401
G1 X117.325 Y174.825 E2042.44419
G1 X117.325 Y60.175 E2045.78081
G1 X117.675 Y60.175 E2045.79099
G0 F9000 X116.95 Y59.8
G1 F1500 X118.05 Y59.8 E2045.82758
G1 X118.05 Y60.35 E2045.84587
G1 X118.05 Y175.2 E2049.6658
G1 X116.95 Y175.2 E2049.70239
G1 X116.95 Y59.8 E2053.54061
G0 F9000 X118.45 Y59.4
G1 F1500 X118.45 Y175.6 E2057.40543
G1 X116.55 Y175.6 E2057.46863
G1 X116.55 Y59.4 E2061.33346
G1 X118.45 Y59.4 E2061.39665
G0 F9000 X116.15 Y59
G1 F1500 X118.85 Y59 E2061.48645
G1 X118.85 Y60.35 E2061.53135
G1 X118.85 Y176 E2065.37789
G1 X116.15 Y176 E2065.46769
G1 X116.15 Y59 E2069.35913
G0 F9000 X115.75 Y58.6
G1 F1500 X119.25 Y58.6 E2069.47554
G1 X119.25 Y60.35 E2069.53374
G1 X119.25 Y176.4 E2073.39358
G1 X115.75 Y176.4 E2073.50999
G1 X115.75 Y58.6 E2077.42803
G0 F9000 X115.35 Y58.2
G1 F1500 X119.65 Y58.2 E2077.57105
G1 X119.65 Y60.35 E2077.64256
G1 X119.65 Y176.8 E2081.51571
G1 X115.35 Y176.8 E2081.65872
G1 X115.35 Y58.2 E2085.60338
G0 F9000 X114.95 Y57.8
G1 F1500 X120.05 Y57.8 E2085.773
G1 X120.05 Y60.35 E2085.85782
G1 X120.05 Y177.2 E2089.74426
G1 X114.95 Y177.2 E2089.91389
G1 X114.95 Y57.8 E2093.88515
G0 F9000 X114.55 Y57.4
G1 F1500 X120.45 Y57.4 E2094.08138
G1 X120.45 Y60.35 E2094.1795
G1 X120.45 Y177.6 E2098.07925
G1 X114.55 Y177.6 E2098.27549
G1 X114.55 Y57.4 E2102.27336
G0 F9000 X114.15 Y57
G1 F1500 X120.85 Y57 E2102.4962
G1 X120.85 Y60.35 E2102.60762
G1 X120.85 Y178 E2106.52068
G1 X114.15 Y178 E2106.74352
G1 X114.15 Y57 E2110.76799
G0 F9000 X113.75 Y56.6
G1 F1500 X121.25 Y56.6 E2111.01745
G1 X121.25 Y60.35 E2111.14217
G1 X121.25 Y178.4 E2115.06853
G1 X113.75 Y178.4 E2115.31798
G1 X113.75 Y56.6 E2119.36907
G0 F9000 X113.35 Y56.2
G1 F1500 X121.65 Y56.2 E2119.64512
G1 X121.65 Y60.35 E2119.78315
G1 X121.65 Y178.8 E2123.72282
G1 X113.35 Y178.8 E2123.99888
G1 X113.35 Y56.2 E2128.07657
G0 F9000 X112.95 Y55.8
G1 F1500 X122.05 Y55.8 E2128.37924
G1 X122.05 Y60.35 E2128.53057
G1 X122.05 Y179.2 E2132.48354
G1 X112.95 Y179.2 E2132.7862
G1 X112.95 Y55.8 E2136.8905
G0 F9000 X112.55 Y55.4
G1 F1500 X122.45 Y55.4 E2137.21978
G1 X122.45 Y174.65 E2141.18605
G1 X122.45 Y179.6 E2141.35069
G1 X112.55 Y179.6 E2141.67996
G1 X112.55 Y55.4 E2145.81087
;TIME_ELAPSED:2776.684327
G1 F2700 E2140.81087
M140 S0
M107
G91 ;Relative positioning
G1 E-2 F2700 ;Retract a bit
G1 E-2 Z0.2 F2400 ;Retract and raise Z
G1 X5 Y5 F3000 ;Wipe out
G1 Z10 ;Raise Z more
G90 ;Absolute positioning

G1 X0 Y235 ;Present print
M106 S0 ;Turn-off fan
M104 S0 ;Turn-off hotend
M140 S0 ;Turn-off bed

M84 X Y E ;Disable all steppers but Z

M82 ;absolute extrusion mode
M104 S0
;End of Gcode
;SETTING_3 {"global_quality": "[general]\\nversion = 4\\nname = rotating_extrude
;SETTING_3 r\\ndefinition = creality_ender3\\n\\n[metadata]\\ntype = quality_cha
;SETTING_3 nges\\nquality_type = standard\\nsetting_version = 20\\n\\n[values]\\
;SETTING_3 nadhesion_type = none\\nmaterial_bed_temperature = 60\\n\\n", "extrud
;SETTING_3 er_quality": ["[general]\\nversion = 4\\nname = rotating_extruder\\nd
;SETTING_3 efinition = creality_ender3\\n\\n[metadata]\\ntype = quality_changes\
;SETTING_3 \nquality_type = standard\\nintent_category = default\\nposition = 0\
;SETTING_3 \nsetting_version = 20\\n\\n[values]\\ninfill_sparse_density = 100\\n
;SETTING_3 material_alternate_walls = True\\nmaterial_print_temperature = 205\\n
;SETTING_3 top_bottom_pattern = concentric\\nwall_line_count = 3\\n\\n"]}
