;FLAVOR:Marlin
;TIME:439
;Filament used: 0.283573m
;Layer height: 0.2
;MINX:41.25
;MINY:41.2
;MINZ:0.2
;MAXX:193.8
;MAXY:193.75
;MAXZ:0.4
;Generated with Cura_SteamEngine 5.2.1
M140 S65
M105
M190 S65
M104 S205
M105
M109 S205
M82 ;absolute extrusion mode
; Ender 3 Custom Start G-code
G92 E0 ; Reset Extruder
G28 ; Home all axes
G1 Z2.0 F3000 ; Move Z Axis up little to prevent scratching of Heat Bed
G1 X0.1 Y20 Z0.3 F5000.0 ; Move to start position
G1 X0.1 Y200.0 Z0.3 F1500.0 E15 ; Draw the first line
G1 X0.4 Y200.0 Z0.3 F5000.0 ; Move to side a little
G1 X0.4 Y20 Z0.3 F1500.0 E30 ; Draw the second line
G92 E0 ; Reset Extruder
G1 Z2.0 F3000 ; Move Z Axis up little to prevent scratching of Heat Bed
G1 X5 Y20 Z0.3 F5000.0 ; Move over to prevent blob squish
G92 E0
G92 E0
;LAYER_COUNT:2
;LAYER:0
M107
;MESH:bedleveling-try_this_one_first.stl
G0 F6000 X52.093 Y182.907 Z0.2
;TYPE:WALL-OUTER
G1 F882.4 X52.051 Y182.744 E0.00761
G1 F954.3 X52.051 Y139.263 E1.82619
G1 F956.2 X52.051 Y95.782 E3.64115
G1 F960 X52.051 Y52.301 E5.44888
G1 F885.6 X52.093 Y52.093 E5.45844
G1 F882.4 X52.256 Y52.051 E5.46606
G1 F954.3 X95.737 Y52.051 E7.28463
G1 F956.2 X139.218 Y52.051 E9.0996
G1 F960 X182.699 Y52.051 E10.90733
G1 X182.95 Y52.3 E10.92202
G1 X182.95 Y117.522 E13.63364
G1 F956.2 X182.949 Y182.744 E16.3561
G1 F882.4 X182.907 Y182.907 E16.36372
G1 F884 X182.7 Y182.95 E16.37326
G1 F960 X52.3 Y182.95 E21.79466
G1 F885.6 X52.093 Y182.907 E21.80419
G0 F6000 X51.593 Y183.407
G1 F820.5 X51.886 Y183.407 E21.81844
G1 F885.6 X52.3 Y183.45 E21.8372
G1 F960 X95.796 Y183.45 E23.64556
G1 F956.2 X139.292 Y183.449 E25.46114
G1 F954.3 X182.788 Y183.448 E27.28035
G1 F880.7 X183.114 Y183.407 E27.29524
G1 F819.1 X183.407 Y183.407 E27.30951
G1 X183.407 Y183.114 E27.32379
G1 F882.4 X183.449 Y182.787 E27.3387
G1 F956.2 X183.449 Y117.543 E30.06208
G1 F960 X183.45 Y52.299 E32.77461
G1 F1066.7 X183.5 Y51.886 E32.79018
G1 F1200 X183.5 Y51.5 E32.80302
G1 X183.114 Y51.5 E32.81586
G1 F1066.7 X182.7 Y51.55 E32.83146
G1 F960 X139.204 Y51.55 E34.63981
G1 F956.2 X95.708 Y51.551 E36.4554
G1 F954.3 X52.212 Y51.552 E38.2746
G1 F882.4 X51.886 Y51.593 E38.28947
G1 F820.5 X51.593 Y51.593 E38.30372
G1 X51.593 Y51.886 E38.31797
G1 F885.6 X51.55 Y52.3 E38.33673
G1 F960 X51.55 Y95.796 E40.14508
G1 F956.2 X51.551 Y139.292 E41.96067
G1 F954.3 X51.552 Y182.788 E43.77987
G1 F882.4 X51.593 Y183.114 E43.79474
G1 F820.5 X51.593 Y183.407 E43.80899
G0 F6000 X51.77 Y183.23
G0 X51.872 Y51.872 ;T123.349 R8.000 A1.570 C17247.0384 FILLET CORNER
G0 X183.17 Y51.83
G0 X183.136 Y51.847
;TYPE:WALL-INNER
G1 F1290.3 X183.068 Y51.886 E43.81141
G1 X183.091 Y51.925 E43.81281
G1 X183.16 Y51.886 E43.81527
G0 F6000 X183.17 Y51.83
G0 X183.128 Y183.128 ;T123.296 R8.000 A1.570 C17233.781627999997 FILLET CORNER
G0 X51.871 Y183.127
G0 X50.635 Y183.1
G0 X47.815 Y183.1
G0 X46.943 Y188.057
;TYPE:WALL-OUTER
G1 F882.4 X46.901 Y187.894 E43.82288
G1 F954.3 X46.901 Y140.979 E45.78508
G1 F956.2 X46.901 Y94.064 E47.74338
G1 F960 X46.9 Y47.149 E49.69388
G1 F885.6 X46.943 Y46.943 E49.70337
G1 F882.4 X47.106 Y46.901 E49.71098
G1 F954.3 X94.021 Y46.901 E51.67318
G1 F956.2 X140.936 Y46.901 E53.63148
G1 F960 X187.851 Y46.9 E55.58198
G1 X188.1 Y47.15 E55.59665
G1 X188.1 Y94.065 E57.54715
G1 F958.1 X188.1 Y140.98 E59.50155
G1 F956.2 X188.099 Y187.895 E61.45985
G1 F954.3 X188.099 Y187.894 E61.45989
G1 F882.4 X188.057 Y188.057 E61.46751
G1 F880.7 X187.894 Y188.099 E61.47514
G1 F954.3 X140.979 Y188.099 E63.43734
G1 F956.2 X94.064 Y188.099 E65.39564
G1 F960 X47.149 Y188.1 E67.34614
G1 F885.6 X46.943 Y188.057 E67.35562
G0 F6000 X46.443 Y188.557
G1 F820.5 X46.736 Y188.557 E67.36987
G1 F885.6 X47.15 Y188.6 E67.38863
G1 F960 X94.079 Y188.6 E69.33971
G1 F956.2 X141.008 Y188.599 E71.2986
G1 F954.3 X187.937 Y188.598 E73.26139
G1 F880.7 X188.264 Y188.557 E73.27632
G1 F819.1 X188.557 Y188.557 E73.2906
G1 X188.557 Y188.264 E73.30487
G1 F882.4 X188.599 Y187.937 E73.31979
G1 F956.2 X188.599 Y141.008 E75.27867
G1 F958.1 X188.599 Y94.079 E77.23366
G1 F960 X188.6 Y47.15 E79.18474
G1 F1066.7 X188.65 Y46.736 E79.20034
G1 F1200 X188.65 Y46.35 E79.21318
G1 X188.264 Y46.35 E79.22602
G1 F1066.7 X187.85 Y46.4 E79.24162
G1 F960 X140.921 Y46.4 E81.1927
G1 F956.2 X93.992 Y46.401 E83.15159
G1 F954.3 X47.063 Y46.402 E85.11438
G1 F882.4 X46.736 Y46.443 E85.12928
G1 F820.5 X46.443 Y46.443 E85.14353
G1 X46.443 Y46.736 E85.15779
G1 F885.6 X46.4 Y47.15 E85.17655
G1 F960 X46.4 Y94.079 E87.12763
G1 F956.2 X46.401 Y141.008 E89.08651
G1 F954.3 X46.402 Y187.937 E91.0493
G1 F882.4 X46.443 Y188.264 E91.06421
G1 F820.5 X46.443 Y188.557 E91.07846
G0 F6000 X46.62 Y188.38
G0 X46.722 Y46.722 ;T133.650 R8.000 A1.570 C20058.485199999996 FILLET CORNER
G0 X188.32 Y46.68
G0 X188.286 Y46.697
;TYPE:WALL-INNER
G1 F1290.3 X188.218 Y46.736 E91.08088
G1 X188.241 Y46.775 E91.08228
G1 X188.31 Y46.736 E91.08474
G0 F6000 X188.32 Y46.68
G0 X188.278 Y188.278 ;T133.596 R8.000 A1.571 C20044.046529999996 FILLET CORNER
G0 X46.722 Y188.277
G0 X45.485 Y188.25
G0 X42.665 Y188.25
G0 X41.793 Y193.207
;TYPE:WALL-OUTER
G1 F882.4 X41.751 Y193.044 E91.09235
G1 F954.3 X41.751 Y155.283 E92.67169
G1 F956.2 X41.751 Y117.522 E94.24789
G1 F958.1 X41.751 Y79.761 E95.82095
G1 F960 X41.75 Y42 E97.39087
G1 F885.6 X41.793 Y41.793 E97.4004
G1 F882.4 X41.956 Y41.751 E97.40801
G1 F954.3 X79.717 Y41.751 E98.98735
G1 F956.2 X117.478 Y41.751 E100.56355
G1 F958.1 X155.239 Y41.751 E102.13661
G1 F960 X193 Y41.75 E103.70653
G1 X193.25 Y42 E103.72123
G1 X193.25 Y92.348 E105.81446
G1 F958.1 X193.25 Y142.696 E107.91187
G1 F956.2 X193.249 Y193.044 E110.01347
G1 F882.4 X193.207 Y193.207 E110.02108
G1 F880.7 X193.044 Y193.249 E110.02871
G1 F954.3 X155.283 Y193.249 E111.60805
G1 F956.2 X117.522 Y193.249 E113.18425
G1 F958.1 X79.761 Y193.249 E114.75731
G1 F960 X42 Y193.25 E116.32723
G1 F885.6 X41.793 Y193.207 E116.33676
G0 F6000 X41.293 Y193.707
G1 F820.5 X41.586 Y193.707 E116.35101
G1 F885.6 X42 Y193.75 E116.36977
G1 F960 X79.772 Y193.75 E117.94014
G1 F958.1 X117.544 Y193.749 E119.51366
G1 F956.2 X155.316 Y193.749 E121.09032
G1 F954.3 X193.088 Y193.748 E122.67012
G1 F880.7 X193.414 Y193.707 E122.68501
G1 F819.1 X193.707 Y193.707 E122.69929
G1 X193.707 Y193.414 E122.71356
G1 F882.4 X193.749 Y193.087 E122.72848
G1 F956.2 X193.749 Y142.725 E124.83066
G1 F958.1 X193.749 Y92.363 E126.92866
G1 F960 X193.749 Y42.001 E129.02247
G1 F1066.7 X193.8 Y41.586 E129.03811
G1 F1200 X193.8 Y41.2 E129.05095
G1 X193.414 Y41.2 E129.06379
G1 F1066.7 X193 Y41.25 E129.07939
G1 F960 X155.228 Y41.25 E130.64977
G1 F958.1 X117.456 Y41.251 E132.22329
G1 F956.2 X79.684 Y41.251 E133.79995
G1 F954.3 X41.912 Y41.252 E135.37975
G1 F882.4 X41.586 Y41.293 E135.39461
G1 F820.5 X41.293 Y41.293 E135.40886
G1 X41.293 Y41.586 E135.42311
G1 F885.6 X41.25 Y42 E135.44187
G1 F960 X41.25 Y79.772 E137.01225
G1 F958.1 X41.251 Y117.544 E138.58577
G1 F956.2 X41.251 Y155.316 E140.16242
G1 F954.3 X41.252 Y193.088 E141.74222
G1 F882.4 X41.293 Y193.414 E141.75709
G1 F820.5 X41.293 Y193.707 E141.77134
G0 F6000 X41.47 Y193.53
G0 X41.572 Y41.572 ;T143.950 R8.000 A1.570 C23082.112 FILLET CORNER
G0 X193.47 Y41.53
G0 X193.436 Y41.547
;TYPE:WALL-INNER
G1 F1290.3 X193.368 Y41.586 E141.77376
G1 X193.391 Y41.625 E141.77516
G1 X193.46 Y41.586 E141.77762
;MESH:NONMESH
G0 F300 X193.46 Y41.586 Z0.4
G0 F6000 X193.47 Y41.53
G0 X193.4 Y182.744 ;T133.210 R8.000 A1.570 C1429.0856800000006 FILLET CORNER
G0 X183.28 Y182.744
G0 X182.949 Y182.744
;TIME_ELAPSED:233.822626
;LAYER:1
M106 S85
;TYPE:WALL-OUTER
;MESH:bedleveling-try_this_one_first.stl
G1 F1075.7 X182.949 Y117.522 E144.50008
G1 F1080 X182.95 Y52.3 E147.21169
G1 X182.7 Y52.05 E147.22639
G1 X139.219 Y52.05 E149.03412
G1 F1075.7 X95.738 Y52.05 E150.84908
G1 F1073.6 X52.257 Y52.05 E152.66766
G1 F992.6 X52.093 Y52.093 E152.67533
G1 F996.3 X52.05 Y52.3 E152.68486
G1 F1080 X52.05 Y95.781 E154.49259
G1 F1075.7 X52.05 Y139.262 E156.30755
G1 F1073.6 X52.05 Y182.743 E158.12612
G1 F992.6 X52.093 Y182.907 E158.13379
G1 F996.3 X52.3 Y182.95 E158.14332
G1 F1080 X95.781 Y182.95 E159.95105
G1 F1075.7 X139.262 Y182.95 E161.76601
G1 F1073.6 X182.743 Y182.95 E163.58459
G1 F1071.4 X182.744 Y182.949 E163.58465
G1 F990.8 X182.907 Y182.907 E163.59228
G1 F992.6 X182.949 Y182.744 E163.59989
G0 F7500 X183.2 Y182.744
G0 X183.128 Y183.128
G0 X51.872 Y183.128
G0 X51.8 Y182.787
G0 X51.552 Y182.787
G1 F1073.6 X51.552 Y139.291 E165.41909
G1 F1075.7 X51.551 Y95.795 E167.23468
G1 F1080 X51.55 Y52.299 E169.04303
G1 F996.3 X51.593 Y51.886 E169.06175
G1 F923.1 X51.593 Y51.593 E169.076
G1 X51.886 Y51.593 E169.09025
G1 F992.6 X52.213 Y51.552 E169.10516
G1 F1073.6 X95.709 Y51.552 E170.92436
G1 F1075.7 X139.205 Y51.551 E172.73995
G1 F1080 X182.701 Y51.55 E174.5483
G1 F1200 X183.114 Y51.5 E174.56387
G1 F1350 X183.5 Y51.5 E174.57671
G1 X183.5 Y51.886 E174.58955
G1 F1200 X183.45 Y52.3 E174.60515
G1 F1080 X183.45 Y117.544 E177.31768
G1 F1075.7 X183.449 Y182.788 E180.04106
G1 F992.6 X183.407 Y183.114 E180.05593
G1 F921.5 X183.407 Y183.407 E180.07021
G1 X183.114 Y183.407 E180.08448
G1 F990.8 X182.787 Y183.448 E180.09942
G1 F1073.6 X139.291 Y183.448 E181.91862
G1 F1075.7 X95.795 Y183.449 E183.73421
G1 F1080 X52.299 Y183.45 E185.54256
G1 F996.3 X51.886 Y183.407 E185.56127
G1 F923.1 X51.593 Y183.407 E185.57553
G1 X51.593 Y183.114 E185.58978
G1 F992.6 X51.552 Y182.787 E185.60469
G0 F7500 X51.8 Y182.787
G0 X51.872 Y51.872 ;T122.908 R8.000 A1.570 C17188.874646 FILLET CORNER
G0 X183.17 Y51.83
G0 X183.16 Y51.886
;TYPE:WALL-INNER
G1 F1451.6 X183.091 Y51.925 E185.60714
G1 X183.068 Y51.886 E185.60854
G1 X183.136 Y51.847 E185.61096
G0 F7500 X183.17 Y51.83
G0 X183.1 Y183.1
G0 X184.365 Y183.1
G0 X187.185 Y183.1
G0 X188.099 Y187.894
;TYPE:WALL-OUTER
G1 F1075.7 X188.099 Y140.979 E187.56926
G1 F1077.8 X188.099 Y94.064 E189.52366
G1 F1080 X188.1 Y47.149 E191.47416
G1 X187.85 Y46.9 E191.48883
G1 X140.935 Y46.9 E193.43933
G1 F1075.7 X94.02 Y46.9 E195.39763
G1 F1073.6 X47.105 Y46.901 E197.35984
G1 F992.6 X46.943 Y46.943 E197.36741
G1 F996.3 X46.9 Y47.15 E197.37693
G1 F1080 X46.9 Y94.065 E199.32743
G1 F1075.7 X46.9 Y140.98 E201.28573
G1 F1073.6 X46.901 Y187.895 E203.24794
G1 F992.6 X46.943 Y188.057 E203.25551
G1 F996.3 X47.15 Y188.1 E203.26503
G1 F1080 X94.065 Y188.1 E205.21553
G1 F1075.7 X140.98 Y188.1 E207.17383
G1 F1073.6 X187.895 Y188.099 E209.13604
G1 F1071.4 X187.894 Y188.099 E209.13608
G1 F990.8 X188.057 Y188.057 E209.14371
G1 F992.6 X188.099 Y187.894 E209.15132
G0 F7500 X188.35 Y187.894
G0 X188.278 Y188.278
G0 X46.62 Y188.38
G0 X46.443 Y188.557
G1 F923.1 X46.443 Y188.264 E209.16557
G1 F992.6 X46.402 Y187.937 E209.18048
G1 F1073.6 X46.402 Y141.008 E211.14327
G1 F1075.7 X46.401 Y94.079 E213.10215
G1 F1080 X46.4 Y47.15 E215.05323
G1 F996.3 X46.443 Y46.736 E215.07199
G1 F923.1 X46.443 Y46.443 E215.08624
G1 X46.736 Y46.443 E215.1005
G1 F992.6 X47.063 Y46.402 E215.1154
G1 F1073.6 X93.992 Y46.402 E217.07819
G1 F1075.7 X140.921 Y46.401 E219.03708
G1 F1080 X187.85 Y46.4 E220.98816
G1 F1200 X188.264 Y46.35 E221.00376
G1 F1350 X188.65 Y46.35 E221.0166
G1 X188.65 Y46.736 E221.02944
G1 F1200 X188.6 Y47.15 E221.04504
G1 F1080 X188.6 Y94.079 E222.99612
G1 F1077.8 X188.6 Y141.008 E224.95111
G1 F1075.7 X188.599 Y187.937 E226.90999
G1 F992.6 X188.557 Y188.264 E226.9249
G1 F921.5 X188.557 Y188.557 E226.93918
G1 X188.264 Y188.557 E226.95346
G1 F990.8 X187.937 Y188.598 E226.96839
G1 F1073.6 X141.008 Y188.598 E228.93118
G1 F1075.7 X94.079 Y188.599 E230.89007
G1 F1080 X47.15 Y188.6 E232.84115
G1 F996.3 X46.736 Y188.557 E232.85991
G1 F923.1 X46.443 Y188.557 E232.87416
G0 F7500 X46.62 Y188.38
G0 X46.722 Y46.722 ;T133.650 R8.000 A1.570 C20058.485199999996 FILLET CORNER
G0 X188.32 Y46.68
G0 X188.31 Y46.736
;TYPE:WALL-INNER
G1 F1451.6 X188.241 Y46.775 E232.87661
G1 X188.218 Y46.736 E232.87801
G1 X188.286 Y46.697 E232.88043
G0 F7500 X188.32 Y46.68
G0 X188.25 Y188.25
G0 X189.515 Y188.25
G0 X192.335 Y188.25
G0 X193.249 Y193.044
;TYPE:WALL-OUTER
G1 F1075.7 X193.249 Y142.696 E234.98203
G1 F1077.8 X193.249 Y92.348 E237.07945
G1 F1080 X193.25 Y42 E239.17267
G1 X193 Y41.75 E239.18737
G1 X155.239 Y41.75 E240.75729
G1 F1077.8 X117.478 Y41.75 E242.33035
G1 F1075.7 X79.717 Y41.75 E243.90655
G1 F1073.6 X41.956 Y41.751 E245.48589
G1 F992.6 X41.793 Y41.793 E245.49351
G1 F996.3 X41.75 Y42 E245.50303
G1 F1080 X41.75 Y79.761 E247.07295
G1 F1077.8 X41.75 Y117.522 E248.64601
G1 F1075.7 X41.75 Y155.283 E250.22221
G1 F1073.6 X41.751 Y193.044 E251.80155
G1 F992.6 X41.793 Y193.207 E251.80917
G1 F996.3 X42 Y193.25 E251.81869
G1 F1080 X79.761 Y193.25 E253.38861
G1 F1077.8 X117.522 Y193.25 E254.96167
G1 F1075.7 X155.283 Y193.25 E256.53787
G1 F1073.6 X193.044 Y193.249 E258.11721
G1 F990.8 X193.207 Y193.207 E258.12484
G1 F992.6 X193.249 Y193.044 E258.13246
G0 F7500 X193.5 Y193.044
G0 X193.428 Y193.428
G0 X41.572 Y193.428
G0 X41.5 Y193.087
G0 X41.252 Y193.087
G1 F1073.6 X41.252 Y155.315 E259.71225
G1 F1075.7 X41.251 Y117.543 E261.28891
G1 F1077.8 X41.251 Y79.771 E262.86243
G1 F1080 X41.25 Y41.999 E264.43281
G1 F996.3 X41.293 Y41.586 E264.45152
G1 F923.1 X41.293 Y41.293 E264.46577
G1 X41.586 Y41.293 E264.48003
G1 F992.6 X41.913 Y41.252 E264.49493
G1 F1073.6 X79.685 Y41.252 E266.07473
G1 F1075.7 X117.457 Y41.251 E267.65139
G1 F1077.8 X155.229 Y41.251 E269.22491
G1 F1080 X193.001 Y41.25 E270.79529
G1 F1200 X193.414 Y41.2 E270.81085
G1 F1350 X193.8 Y41.2 E270.82369
G1 X193.8 Y41.586 E270.83653
G1 F1200 X193.75 Y42 E270.85213
G1 F1080 X193.75 Y92.362 E272.94594
G1 F1077.8 X193.75 Y142.724 E275.04394
G1 F1075.7 X193.75 Y193.086 E277.14612
G1 F992.6 X193.707 Y193.414 E277.16109
G1 F921.5 X193.707 Y193.707 E277.17536
G1 X193.414 Y193.707 E277.18964
G1 F990.8 X193.087 Y193.748 E277.20458
G1 F1073.6 X155.315 Y193.748 E278.78437
G1 F1075.7 X117.543 Y193.749 E280.36103
G1 F1077.8 X79.771 Y193.749 E281.93455
G1 F1080 X41.999 Y193.75 E283.50493
G1 F996.3 X41.586 Y193.707 E283.52364
G1 F923.1 X41.293 Y193.707 E283.53789
G1 X41.293 Y193.414 E283.55215
G1 F992.6 X41.252 Y193.087 E283.56705
G0 F7500 X41.5 Y193.087
G0 X41.572 Y41.572 ;T143.509 R8.000 A1.570 C23014.822445999995 FILLET CORNER
G0 X193.47 Y41.53
G0 X193.46 Y41.586
;TYPE:WALL-INNER
G1 F1451.6 X193.391 Y41.625 E283.56951
G1 X193.368 Y41.586 E283.57091
G1 X193.436 Y41.547 E283.57333
;TIME_ELAPSED:439.591234
M140 S0
M107
G91 ;Relative positioning
G1 E-2 F2700 ;Retract a bit
G1 E-2 Z0.2 F2400 ;Retract and raise Z
G1 X5 Y5 F3000 ;Wipe out
G1 Z10 ;Raise Z more
G90 ;Absolute positioning

G1 X0 Y235 ;Present print
M106 S0 ;Turn-off fan
M104 S0 ;Turn-off hotend
M140 S0 ;Turn-off bed

M84 X Y E ;Disable all steppers but Z

M82 ;absolute extrusion mode
M104 S0
;End of Gcode
;SETTING_3 {"global_quality": "[general]\\nversion = 4\\nname = Standard Quality
;SETTING_3  #2\\ndefinition = creality_ender3\\n\\n[metadata]\\ntype = quality_c
;SETTING_3 hanges\\nquality_type = standard\\nsetting_version = 20\\n\\n[values]
;SETTING_3 \\nadhesion_type = none\\nmaterial_bed_temperature = 65\\n\\n", "extr
;SETTING_3 uder_quality": ["[general]\\nversion = 4\\nname = Standard Quality #2
;SETTING_3 \\ndefinition = creality_ender3\\n\\n[metadata]\\ntype = quality_chan
;SETTING_3 ges\\nquality_type = standard\\nsetting_version = 20\\nposition = 0\\
;SETTING_3 n\\n[values]\\nmaterial_alternate_walls = True\\nmaterial_print_tempe
;SETTING_3 rature = 205\\nretraction_enable = False\\nskirt_brim_line_width = 0.
;SETTING_3 1\\nskirt_brim_minimal_length = 0\\n\\n"]}
